{"crs":{"properties":{"name":"urn:ogc:def:crs:OGC:1.3:CRS84"},"type":"name"},"features":[{"geometry":{"coordinates":[[132.0991354,33.16992759],[131.9773655,33.30750725],[131.7316635,33.74473942],[131.1607878,33.879284],[131.0523529,33.95549791],[131.0211201,33.97628993],[131.0014502,33.97385251],[130.9635688,33.95977144],[130.9403267,33.93957782],[130.9325793,33.91478819],[130.9181914,33.90193147],[130.8963291,33.90041034],[130.8354705,33.95806392],[130.703907,33.97664946],[130.6390703,34.01705179]],"type":"LineString"},"id":1,"properties":{"corridor_time_h":11,"distance_km":101,"id_name":"Corridor - Bungo Suido - Kanmon","pilot_cost":0,"total_consumption":0,"transit_arrival_time":"-1:00","type_specific":null,"wating_time":0},"type":"Feature"},{"geometry":{"coordinates":[[130.6390703,34.01705179],[130.703907,33.97664946],[130.8354705,33.95806392],[130.8963291,33.90041034],[130.9181914,33.90193147],[130.9325793,33.91478819],[130.9403267,33.93957782],[130.9635688,33.95977144],[131.0014502,33.97385251],[131.0211201,33.97628993],[131.0523529,33.95549791],[131.1607878,33.879284],[131.7316635,33.74473942],[131.9773655,33.30750725],[132.0991354,33.16992759]],"type":"LineString"},"id":2,"properties":{"corridor_time_h":11,"distance_km":101,"id_name":"Corridor - Kanmon - Bungo Suido","pilot_cost":0,"total_consumption":0,"transit_arrival_time":"-1:00","type_specific":null,"wating_time":0},"type":"Feature"},{"geometry":{"coordinates":[[12.922420273618314,54.8358657396301],[12.711599642587139,54.79002392940097],[12.24847330135193,54.61427261635214],[12.196075453588396,54.52457947467811],[12.17333333312267,54.46525011556898],[12.10167143687114,54.438750268814196],[11.999866991672555,54.4387487999858],[11.45379788,54.50905906],[11.22552392,54.55202979],[10.76517598,54.67771064],[10.76670785,54.72140259],[10.87628839,54.82287124],[10.89369654,54.91640909],[10.96576932,54.96751192],[11.00170592,55.04745631],[10.99200861,55.15221224],[11.07578142,55.19657541],[10.96930493,55.29245768],[10.97856797,55.42665492],[10.8427749,55.51936158],[10.79605322,55.60980769],[10.79648376,55.74496458],[10.99706191,55.92436748],[11.20925604,56.05525431],[11.8137725,56.74383004],[11.4048382,57.48217848],[10.83932657,57.7765751],[10.48997151,57.80485771],[9.563487229,57.77157255]],"type":"LineString"},"id":3,"properties":{"corridor_time_h":32,"distance_km":372,"id_name":"Corridor- Great belt north Bound","pilot_cost":0,"total_consumption":0,"transit_arrival_time":"-1:00","type_specific":null,"wating_time":0},"type":"Feature"},{"geometry":{"coordinates":[[9.563487229,57.77157255],[10.48997151,57.80485771],[10.83932657,57.7765751],[11.4048382,57.48217848],[11.8137725,56.74383004],[11.20925604,56.05525431],[10.99706191,55.92436748],[10.79648376,55.74496458],[10.79605322,55.60980769],[10.8427749,55.51936158],[10.97856797,55.42665492],[10.96930493,55.29245768],[11.07578142,55.19657541],[10.99200861,55.15221224],[11.00170592,55.04745631],[10.96576932,54.96751192],[10.89369654,54.91640909],[10.87628839,54.82287124],[10.76670785,54.72140259],[10.76517598,54.67771064],[11.22552392,54.55202979],[11.45379788,54.50905906],[11.999666485904509,54.40376307619382],[12.100828567852151,54.40375407190356],[12.160000000034078,54.40583638864742],[12.235833332901878,54.455000033011274],[12.273568134642318,54.51559233382611],[12.27357378319889,54.5155916882598],[12.300146733480672,54.582568105978716],[12.743744647485977,54.75775250440159],[13.089749999449753,54.816919736326945],[13.226583333320175,54.84408640626472],[13.583110179134723,54.91251440513935]],"type":"LineString"},"id":4,"properties":{"corridor_time_h":32,"distance_km":372,"id_name":"Corridor- Great belt south Bound","pilot_cost":0,"total_consumption":0,"transit_arrival_time":"-1:00","type_specific":null,"wating_time":0},"type":"Feature"},{"geometry":{"coordinates":[[130.592002,34.01538584],[130.8205738,33.96469338],[130.8554845,33.95068518],[130.897152,33.90677791],[130.9151704,33.90210559],[130.9298103,33.91518744],[130.9388195,33.93667468],[130.9624686,33.96189192],[131.0041361,33.97589827],[131.034884,33.96968324],[131.1674277,33.8880871],[131.8881631,33.74496696],[132.1269067,33.696270320000004],[132.4084439,33.7721127],[132.6246645,33.90397455],[132.7147587,33.95815651],[132.8768918,34.12081577],[132.9411146,34.14752162],[132.9888665,34.13137846],[132.9863087,34.11550076],[132.9927034,34.10385522],[133.0109337,34.09346047],[133.0732765,34.07102735],[133.1973336,34.09432586],[133.3744074,34.14938818],[133.5490644,34.27181892],[133.6572758,34.32669795],[133.7939639,34.35177356],[133.9188097,34.40557264],[134.054051,34.43791377],[134.1337857,34.42695539],[134.2325049,34.40033622],[134.6444676,34.252995],[134.701421,34.18707812],[134.7666667,34.06666667]],"type":"LineString"},"id":5,"properties":{"corridor_time_h":24,"distance_km":240,"id_name":"Corridor- Kanmon - Kii Suido","pilot_cost":0,"total_consumption":0,"transit_arrival_time":"-1:00","type_specific":null,"wating_time":0},"type":"Feature"},{"geometry":{"coordinates":[[134.7666667,34.06666667],[134.701421,34.18707812],[134.6444676,34.252995],[134.2325049,34.40033622],[134.1337857,34.42695539],[134.054051,34.43791377],[133.9188097,34.40557264],[133.7939639,34.35177356],[133.6572758,34.32669795],[133.5490644,34.27181892],[133.3744074,34.14938818],[133.1973336,34.09432586],[133.0732765,34.07102735],[133.0109337,34.09346047],[132.9927034,34.10385522],[132.9863087,34.11550076],[132.9888665,34.13137846],[132.9411146,34.14752162],[132.8768918,34.12081577],[132.7147587,33.95815651],[132.6246645,33.90397455],[132.4084439,33.7721127],[132.1269067,33.696270320000004],[131.8881631,33.74496696],[131.1674277,33.8880871],[131.034884,33.96968324],[131.0041361,33.97589827],[130.9624686,33.96189192],[130.9388195,33.93667468],[130.9298103,33.91518744],[130.9151704,33.90210559],[130.897152,33.90677791],[130.8554845,33.95068518],[130.8205738,33.96469338],[130.592002,34.01538584]],"type":"LineString"},"id":6,"properties":{"corridor_time_h":24,"distance_km":240,"id_name":"Corridor- Kii Suido - Kanmon","pilot_cost":0,"total_consumption":0,"transit_arrival_time":"-1:00","type_specific":null,"wating_time":0},"type":"Feature"},{"geometry":{"coordinates":[[94.9789081,6.231816924],[95.10313604,6.24016157],[97.45445342,5.594208194],[98.75,4.916666667],[100.7891348,3.041431866],[101.2083437,2.721931114],[101.4331369,2.586420461],[101.6498295,2.406391509],[102.2918065,1.932948133],[103.2111488,1.435083806],[103.4344169,1.223241382],[103.65,1.183333333],[103.7376015,1.148133001],[103.870429,1.204145521],[103.9833333,1.25],[104.1112721,1.27945012],[104.3184806,1.303290172],[104.3666667,1.333333333],[104.5367679,1.502422814],[104.5666667,1.6]],"type":"LineString"},"id":7,"properties":{"corridor_time_h":54,"distance_km":679,"id_name":"Corridor- Malacca Strait - Singapore","pilot_cost":0,"total_consumption":1,"transit_arrival_time":"-1:00","type_specific":null,"wating_time":0},"type":"Feature"},{"geometry":{"coordinates":[[-79.91609,9.41846],[-79.91851371,9.390834344],[-79.91865567,9.312955996],[-79.91909196,9.298692274],[-79.92115833,9.282948381],[-79.9239686,9.265409014],[-79.92349104,9.251376888],[-79.92514413,9.212296106],[-79.86471422,9.177871335],[-79.84673834,9.185416013],[-79.83391149,9.177735332],[-79.81349573,9.161659619],[-79.80467002,9.122568936],[-79.7856594,9.116284648],[-79.76888045,9.11244873],[-79.75458116,9.119902886],[-79.74176965,9.120719026],[-79.71003017,9.115903777],[-79.69743907,9.111106596],[-79.6911573,9.106046366],[-79.68655617,9.099970367],[-79.67895192,9.085605209],[-79.67250484,9.071484351],[-79.66937313,9.066224029],[-79.66085968,9.059448986],[-79.6578841,9.056918515],[-79.65449525,9.053081961],[-79.646891,9.042225107],[-79.64308888,9.037735335],[-79.63647649,9.032837338],[-79.62509766,9.023349547],[-79.61277561,9.012768694],[-79.59520335,8.990047254],[-79.59304732,8.986807858],[-79.58953806,8.982465535],[-79.58490836,8.976453914],[-79.58204126,8.972839224],[-79.57432135,8.963535764],[-79.57028612,8.95224151],[-79.56490582,8.942807218],[-79.5249421,8.886019142],[-79.47218801,8.823039973],[-79.46658474,8.797043402]],"type":"LineString"},"id":8,"properties":{"corridor_time_h":11,"distance_km":53,"id_name":"Corridor- Panama Canal- east to west","pilot_cost":0,"total_consumption":0,"transit_arrival_time":"-1:00","type_specific":null,"wating_time":0},"type":"Feature"},{"geometry":{"coordinates":[[-79.46658474,8.797043402],[-79.47218801,8.823039973],[-79.5249421,8.886019142],[-79.56490582,8.942807218],[-79.57028612,8.95224151],[-79.57432135,8.963535764],[-79.58204126,8.972839224],[-79.58490836,8.976453914],[-79.58953806,8.982465535],[-79.59304732,8.986807858],[-79.59520335,8.990047254],[-79.61277561,9.012768694],[-79.62509766,9.023349547],[-79.63647649,9.032837338],[-79.64308888,9.037735335],[-79.646891,9.042225107],[-79.65449525,9.053081961],[-79.6578841,9.056918515],[-79.66085968,9.059448986],[-79.66937313,9.066224029],[-79.67250484,9.071484351],[-79.67895192,9.085605209],[-79.68655617,9.099970367],[-79.6911573,9.106046366],[-79.69743907,9.111106596],[-79.71003017,9.115903777],[-79.74176965,9.120719026],[-79.75458116,9.119902886],[-79.76888045,9.11244873],[-79.7856594,9.116284648],[-79.80467002,9.122568936],[-79.81349573,9.161659619],[-79.83391149,9.177735332],[-79.84673834,9.185416013],[-79.86471422,9.177871335],[-79.92514413,9.212296106],[-79.92349104,9.251376888],[-79.9239686,9.265409014],[-79.92115833,9.282948381],[-79.91909196,9.298692274],[-79.91865567,9.312955996],[-79.91851371,9.390834344],[-79.91608792,9.418457734]],"type":"LineString"},"id":9,"properties":{"corridor_time_h":11,"distance_km":52,"id_name":"Corridor- Panama Canal- west to east","pilot_cost":0,"total_consumption":0,"transit_arrival_time":"-1:00","type_specific":null,"wating_time":0},"type":"Feature"},{"geometry":{"coordinates":[[104.5666667,1.6],[104.5367679,1.502422814],[104.3666667,1.333333333],[104.3184806,1.303290172],[104.1112721,1.27945012],[103.9833333,1.25],[103.870429,1.204145521],[103.7376015,1.148133001],[103.65,1.183333333],[103.4344169,1.223241382],[103.2111488,1.435083806],[102.2918065,1.932948133],[101.6498295,2.406391509],[101.4331369,2.586420461],[101.2083437,2.721931114],[100.7891348,3.041431866],[98.75,4.916666667],[97.45445342,5.594208194],[95.10313604,6.24016157],[94.9789081,6.231816924]],"type":"LineString"},"id":10,"properties":{"corridor_time_h":55,"distance_km":679,"id_name":"Corridor- Singapore - Malacca Strait","pilot_cost":0,"total_consumption":1,"transit_arrival_time":"-1:00","type_specific":null,"wating_time":0},"type":"Feature"},{"geometry":{"coordinates":[[32.55361,29.84722],[32.5578427,29.92368437],[32.57752368,29.94244154],[32.58834821,29.96716148],[32.57663754,30.02340442],[32.57404017,30.06949023],[32.57000571,30.17131569],[32.56740805,30.20835533],[32.55951338,30.22337193],[32.52659149,30.25464494],[32.47925025,30.26371343],[32.45327598,30.27268558],[32.39483785,30.30856601],[32.36627789,30.38588847],[32.3610917,30.41164905],[32.34812537,30.46203051],[32.34163352,30.50791095],[32.32898653,30.52755746],[32.30916738,30.54817837],[32.30414936,30.56349334],[32.30911592,30.58316688],[32.32405377,30.61138715],[32.34392591,30.69343573],[32.34587646,30.70966626],[32.34290036,30.71906163],[32.3240577,30.79504504],[32.32008201,30.81808433],[32.31113169,31.04732178],[32.3111162,31.10092984],[32.32105805,31.12729731],[32.32900769,31.15535786],[32.34092756,31.18935951],[32.3429141,31.20805521],[32.35283218,31.2369413],[32.36461094,31.30033759],[32.6811,31.71556]],"type":"LineString"},"id":11,"properties":{"corridor_time_h":10,"distance_km":105,"id_name":"Corridor- Suez Canal- North bound","pilot_cost":0,"total_consumption":0,"transit_arrival_time":"-1:00","type_specific":null,"wating_time":5},"type":"Feature"},{"geometry":{"coordinates":[[32.6811,31.71556],[32.3550641,31.32745015],[32.36570722,31.26685464],[32.35275054,31.24252216],[32.33735498,31.19825163],[32.33875625,31.1886769],[32.31916424,31.14078871],[32.32093471,31.12922458],[32.30936824,31.10126274],[32.31916424,30.82532233],[32.32196279,30.80249164],[32.34295423,30.72675105],[32.34575309,30.71231752],[32.3317588,30.63770986],[32.31636508,30.59436285],[32.30100598,30.57129582],[32.31183052,30.54503288],[32.32068696,30.53655944],[32.33938388,30.50943949],[32.34430413,30.47298514],[32.35316056,30.44754379],[32.35808081,30.41530854],[32.45278318,30.26956061],[32.52241695,30.25312285],[32.55489056,30.22082352],[32.56866724,30.18596234],[32.57260344,30.06342535],[32.57949178,30.02510138],[32.58834821,29.96716148],[32.57752368,29.94244154],[32.5578427,29.92368437],[32.55361,29.84722]],"type":"LineString"},"id":12,"properties":{"corridor_time_h":14,"distance_km":115,"id_name":"Corridor- Suez Canal-south bound","pilot_cost":0,"total_consumption":0,"transit_arrival_time":"-1:00","type_specific":null,"wating_time":4},"type":"Feature"},{"geometry":{"coordinates":[[25.84943813,39.91861567],[26.18688781,40.01915149],[26.25709915,40.03462754],[26.35393863,40.1013114],[26.38880085,40.1398101],[26.39073764,40.19455911],[26.41978948,40.20934856],[26.53599687,40.26995157],[26.63283636,40.33788061],[26.70643437,40.3954191],[26.74178166,40.41453517],[27.44628805,40.6588756],[28.80978802,40.88470718],[29.00153021,40.93738826],[29.00320209,40.99744064],[28.9940687,41.01909708],[29.00841316,41.034197],[29.03639242,41.0440849],[29.04886907,41.06042141],[29.05930724,41.08205714],[29.06844064,41.10761745],[29.08674895,41.12144138],[29.06544427,41.13748508],[29.05769711,41.15498283],[29.077065,41.16956072],[29.08674895,41.18413537],[29.10758376,41.19307386],[29.12548475,41.21036157],[29.16107936,41.23134575],[29.16615733,41.24531348],[29.13333333,41.28333333]],"type":"LineString"},"id":13,"properties":{"corridor_time_h":18,"distance_km":186,"id_name":"Corridor-Canakkale - Bosphorus- North bound","pilot_cost":0,"total_consumption":0,"transit_arrival_time":"-1:00","type_specific":null,"wating_time":0},"type":"Feature"},{"geometry":{"coordinates":[[29.13333333,41.28333333],[29.16615733,41.24531348],[29.16107936,41.23134575],[29.12548475,41.21036157],[29.10758376,41.19307386],[29.08674895,41.18413537],[29.077065,41.16956072],[29.05769711,41.15498283],[29.06544427,41.13748508],[29.08674895,41.12144138],[29.06844064,41.10761745],[29.05930724,41.08205714],[29.04886907,41.06042141],[29.03639242,41.0440849],[29.00841316,41.034197],[28.9940687,41.01909708],[29.00320209,40.99744064],[29.00153021,40.93738826],[28.80978802,40.88470718],[27.44628805,40.6588756],[26.74178166,40.41453517],[26.70643437,40.3954191],[26.63283636,40.33788061],[26.53599687,40.26995157],[26.41978948,40.20934856],[26.39073764,40.19455911],[26.38880085,40.1398101],[26.35393863,40.1013114],[26.25709915,40.03462754],[26.18688781,40.01915149],[25.84943813,39.91861567]],"type":"LineString"},"id":14,"properties":{"corridor_time_h":17,"distance_km":186,"id_name":"Corridor-Canakkale - Bosphorus- South bound","pilot_cost":0,"total_consumption":0,"transit_arrival_time":"-1:00","type_specific":null,"wating_time":0},"type":"Feature"},{"geometry":{"coordinates":[[291.7841122,-52.46586393],[291.4849747,-52.44933526],[290.9666667,-52.36666667],[290.8666667,-52.35],[290.6833333,-52.35],[290.5410666,-52.41880784],[290.4333333,-52.48333333],[290.3,-52.58333333],[289.7,-52.71666667],[289.5666667,-52.73333333],[289.5166667,-52.76666667],[289.5166667,-52.96666667],[289.35,-53.13333333],[289.3166667,-53.21666667],[289.1,-53.81666667],[288.7333333,-53.91666667],[288.1166667,-53.8],[287.8833333,-53.7],[287.6833333,-53.56666667],[287.6166667,-53.55],[287.45,-53.55],[287.3333333,-53.5],[286.7833333,-53.26666667],[286.5333333,-53.08333333],[286.1284261,-52.94265427],[285.7107415,-52.76952269],[285.3833333,-52.65]],"type":"LineString"},"id":15,"properties":{"corridor_time_h":26,"distance_km":317,"id_name":"Corridor-Magellan Strait- East to west","pilot_cost":0,"total_consumption":0,"transit_arrival_time":"-1:00","type_specific":null,"wating_time":0},"type":"Feature"},{"geometry":{"coordinates":[[285.3833333,-52.65],[285.7107415,-52.76952269],[286.1284261,-52.94265427],[286.5333333,-53.08333333],[286.7833333,-53.26666667],[287.3333333,-53.5],[287.45,-53.55],[287.6166667,-53.55],[287.6833333,-53.56666667],[287.8833333,-53.7],[288.1166667,-53.8],[288.7333333,-53.91666667],[289.1,-53.81666667],[289.3166667,-53.21666667],[289.35,-53.13333333],[289.5166667,-52.96666667],[289.5166667,-52.76666667],[289.5666667,-52.73333333],[289.7,-52.71666667],[290.3,-52.58333333],[290.4333333,-52.48333333],[290.5410666,-52.41880784],[290.6833333,-52.35],[290.8666667,-52.35],[290.9666667,-52.36666667],[291.4849747,-52.44933526],[291.7841122,-52.46586393]],"type":"LineString"},"id":16,"properties":{"corridor_time_h":26,"distance_km":317,"id_name":"Corridor-Magellan Strait- west to east","pilot_cost":0,"total_consumption":0,"transit_arrival_time":"-1:00","type_specific":null,"wating_time":0},"type":"Feature"},{"geometry":{"coordinates":[[141.833333333333,-10.6],[141.86866423235,-10.5793318613546],[141.911851370774,-10.5707996615639],[142.128373443602,-10.564307366533],[142.216083232426,-10.5069528107683],[142.281438495731,-10.492759068663],[142.362143884944,-10.4975730637523],[142.477377666076,-10.5704389821074],[142.65846368274,-10.7220942197436],[142.766202756597,-10.7895793653034],[142.817265196068,-10.8160966245495],[143.019266882789,-11.334577683865],[142.979014335168,-11.4750820556465],[142.973222948541,-11.582418692311],[143.12160612622,-11.7655266976075],[143.309917868075,-11.9660342610674],[143.255204943651,-12.0572114062786],[143.229413249494,-12.0888629020918],[143.244305524781,-12.2114242723047],[143.260061120375,-12.2527575104433],[143.360530096611,-12.419569795922],[143.424091978609,-12.5272682938994],[143.492618027938,-12.6459396571999],[143.542002949616,-12.7383173543055],[143.581755849584,-12.8182149215042],[143.648231513184,-12.8644997969596],[143.66830371031,-12.888375248317],[143.727872811458,-12.9702917323997],[143.738124740098,-12.9944724515689],[143.769635931285,-13.0909615651185],[143.808593260116,-13.1927702024462],[143.843557732529,-13.2902314147995],[143.888774133582,-13.3624618881403],[143.952444006186,-13.4718162492702],[144.007480675725,-13.5666475061564],[144.069639737793,-13.6762227273383],[144.075035489709,-13.6912132751812],[144.175720220454,-13.8031403746007],[144.230001484725,-13.8620168073398],[144.245627520329,-13.8835267002472],[144.44806070813,-14.0763356985705],[144.585418354878,-14.1787168217428],[144.673337612558,-14.3368098742301],[144.724904479248,-14.3849063170905],[144.797896436046,-14.4509828491849],[144.864832176768,-14.4933985828728],[144.978667235636,-14.5756138088183],[145.213910000579,-14.7882713460614],[145.412176398763,-14.9553610716054],[145.40145898131,-15.0288484815152],[145.401330313422,-15.1092283162343],[145.376681464839,-15.3950218122396],[145.368047778429,-15.5780473598654],[145.604907156207,-16.3727563117984],[145.648057175807,-16.4825481412191],[145.843524452951,-16.6962919249372],[145.815788300304,-16.8369529242014]],"type":"LineString"},"id":17,"properties":{"corridor_time_h":42,"distance_km":514,"id_name":"Torres Strait - Cairns","pilot_cost":0,"total_consumption":1,"transit_arrival_time":"-1:00","type_specific":null,"wating_time":0},"type":"Feature"},{"geometry":{"coordinates":[[145.815788300304,-16.8369529242014],[145.843524452951,-16.6962919249372],[145.648057175807,-16.4825481412191],[145.604907156207,-16.3727563117984],[145.368047778429,-15.5780473598654],[145.376681464839,-15.3950218122396],[145.401330313422,-15.1092283162343],[145.40145898131,-15.0288484815152],[145.412176398763,-14.9553610716054],[145.213910000579,-14.7882713460614],[144.978667235636,-14.5756138088183],[144.864832176768,-14.4933985828728],[144.797896436046,-14.4509828491849],[144.724904479248,-14.3849063170905],[144.673337612558,-14.3368098742301],[144.585418354878,-14.1787168217428],[144.44806070813,-14.0763356985705],[144.245627520329,-13.8835267002472],[144.230001484725,-13.8620168073398],[144.175720220454,-13.8031403746007],[144.075035489709,-13.6912132751812],[144.069639737793,-13.6762227273383],[144.007480675725,-13.5666475061564],[143.952444006186,-13.4718162492702],[143.888774133582,-13.3624618881403],[143.843557732529,-13.2902314147995],[143.808593260116,-13.1927702024462],[143.769635931285,-13.0909615651185],[143.738124740098,-12.9944724515689],[143.727872811458,-12.9702917323997],[143.66830371031,-12.888375248317],[143.648231513184,-12.8644997969596],[143.581755849584,-12.8182149215042],[143.542002949616,-12.7383173543055],[143.492618027938,-12.6459396571999],[143.424091978609,-12.5272682938994],[143.360530096611,-12.419569795922],[143.260061120375,-12.2527575104433],[143.244305524781,-12.2114242723047],[143.229413249494,-12.0888629020918],[143.255204943651,-12.0572114062786],[143.309917868075,-11.9660342610674],[143.12160612622,-11.7655266976075],[142.973222948541,-11.582418692311],[142.979014335168,-11.4750820556465],[143.019266882789,-11.334577683865],[142.817265196068,-10.8160966245495],[142.766202756597,-10.7895793653034],[142.65846368274,-10.7220942197436],[142.477377666076,-10.5704389821074],[142.362143884944,-10.4975730637523],[142.281438495731,-10.492759068663],[142.216083232426,-10.5069528107683],[142.128373443602,-10.564307366533],[141.911851370774,-10.5707996615639],[141.86866423235,-10.5793318613546],[141.833333333333,-10.6]],"type":"LineString"},"id":18,"properties":{"corridor_time_h":42,"distance_km":514,"id_name":"Cairns - Torres Strait","pilot_cost":0,"total_consumption":1,"transit_arrival_time":"-1:00","type_specific":null,"wating_time":0},"type":"Feature"},{"geometry":{"coordinates":[[141.766666666667,-10.6666666666667],[141.870548754263,-10.5988395690573],[141.883926271254,-10.5818914567511],[141.927427974654,-10.5703973762727],[142.127984146332,-10.5622761677354],[142.204695037744,-10.5119989379178],[142.260065305229,-10.5095415699108],[142.291787854309,-10.4953640651439],[142.315959587079,-10.4989452699279],[142.414594782734,-10.553693428022],[142.491793584885,-10.6062332678824],[142.579472197838,-10.6858259937266],[142.633694099677,-10.6976658980809],[142.682939111976,-10.7481090001749],[142.799765045408,-10.8057479368072],[142.828352145039,-10.8244150620342],[142.976691857359,-11.2363859074377],[142.981189782298,-11.5967361035873],[143.302005445228,-11.9703446709471],[143.246694383291,-12.0595472473645],[143.242441265956,-12.2161322177779],[143.330339024212,-12.3892377690932],[143.48626985717,-12.6212350598867],[143.552918831409,-12.786251248331],[143.725026122495,-12.9596773157078],[143.843548515967,-13.1854014678872],[143.889034116484,-13.4247109431845],[144.07836200713,-13.6860521979679],[144.245627520329,-13.8835267002472],[144.44806070813,-14.0763356985705],[144.585418354878,-14.1787168217428],[144.673337612558,-14.3368098742301],[144.799963461668,-14.453030996779],[144.869082374938,-14.49479151644],[144.940413093433,-14.5365441688597],[145.13228719667,-14.7216592663703],[145.379456430523,-14.9124949268412],[145.402680385382,-15.0924843709205],[145.407656947137,-15.6464412009763],[145.446885059755,-15.8047314572054],[145.509399987471,-16.010311346889],[145.659802742746,-16.4880773261176],[146.036915533546,-16.9038360552479],[146.397992736468,-18.1376631161879],[146.526830390804,-18.4106910149332],[146.775105527269,-18.7388005315189],[146.91,-19.08],[146.91,-19.08],[146.833333333333,-19.25]],"type":"LineString"},"id":19,"properties":{"corridor_time_h":55,"distance_km":670,"id_name":"Torres Strait - Townsville","pilot_cost":0,"total_consumption":1,"transit_arrival_time":"-1:00","type_specific":null,"wating_time":0},"type":"Feature"},{"geometry":{"coordinates":[[146.833333333333,-19.25],[146.91,-19.08],[146.91,-19.08],[146.775105527269,-18.7388005315189],[146.526830390804,-18.4106910149332],[146.397992736468,-18.1376631161879],[146.036915533546,-16.9038360552479],[145.659802742746,-16.4880773261176],[145.509399987471,-16.010311346889],[145.446885059755,-15.8047314572054],[145.407656947137,-15.6464412009763],[145.402680385382,-15.0924843709205],[145.379456430523,-14.9124949268412],[145.13228719667,-14.7216592663703],[144.940413093433,-14.5365441688597],[144.869082374938,-14.49479151644],[144.799963461668,-14.453030996779],[144.673337612558,-14.3368098742301],[144.585418354878,-14.1787168217428],[144.44806070813,-14.0763356985705],[144.245627520329,-13.8835267002472],[144.07836200713,-13.6860521979679],[143.889034116484,-13.4247109431845],[143.843548515967,-13.1854014678872],[143.725026122495,-12.9596773157078],[143.552918831409,-12.786251248331],[143.48626985717,-12.6212350598867],[143.330339024212,-12.3892377690932],[143.242441265956,-12.2161322177779],[143.246694383291,-12.0595472473645],[143.302005445228,-11.9703446709471],[142.981189782298,-11.5967361035873],[142.976691857359,-11.2363859074377],[142.828352145039,-10.8244150620342],[142.799765045408,-10.8057479368072],[142.682939111976,-10.7481090001749],[142.633694099677,-10.6976658980809],[142.579472197838,-10.6858259937266],[142.491793584885,-10.6062332678824],[142.414594782734,-10.553693428022],[142.315959587079,-10.4989452699279],[142.291787854309,-10.4953640651439],[142.260065305229,-10.5095415699108],[142.204695037744,-10.5119989379178],[142.127984146332,-10.5622761677354],[141.927427974654,-10.5703973762727],[141.883926271254,-10.5818914567511],[141.870548754263,-10.5988395690573],[141.766666666667,-10.6666666666667]],"type":"LineString"},"id":20,"properties":{"corridor_time_h":55,"distance_km":670,"id_name":"Townsville - Torres Strait ","pilot_cost":0,"total_consumption":1,"transit_arrival_time":"-1:00","type_specific":null,"wating_time":0},"type":"Feature"},{"geometry":{"coordinates":[[141.85,-10.6],[142.143100111608,-10.4616634778006],[142.328518470026,-10.3806324556585],[142.441829689059,-10.3603714130314],[142.616947027564,-10.3806324556585],[142.987783744399,-10.745104435533399],[143.317416381585,-11.6240699323772],[143.379222501058,-11.9970562599061],[143.729457178068,-12.3091622430187],[143.750059217892,-12.9422911711809],[143.841460827861,-13.1850430166038],[144.034523569638,-13.6452223671253],[144.246514031196,-13.8713036618114],[144.282476698782,-13.9484519135276],[144.679958814203,-14.3448040849012],[144.785954044982,-14.4584433276052],[144.946839663129,-14.5390553183592],[145.213720512055,-14.6763942654312],[145.325394058769,-14.8246235247504],[145.416247113722,-14.9434996207714],[145.372713358224,-15.46941411698],[145.402997709875,-15.6426025730541],[145.493850764829,-15.7245881806417],[145.510885712632,-15.8465944195596],[145.68123519067,-16.4428056558182],[146.03896909455,-16.9068759114328],[146.120358289612,-17.0950804637183],[146.258530644021,-17.5286707101778],[146.389131910516,-18.1195676236302],[146.707117602854,-18.539910705394],[147.011853891344,-18.8553874815177],[147.87674569836,-19.48],[148.08,-19.81],[148.066667,-19.85]],"type":"LineString"},"id":21,"properties":{"corridor_time_h":61,"distance_km":738,"id_name":"Torres Strait - Abbot Point","pilot_cost":0,"total_consumption":1,"transit_arrival_time":"-1:00","type_specific":null,"wating_time":0},"type":"Feature"},{"geometry":{"coordinates":[[148.066667,-19.85],[148.08,-19.81],[147.87674569836,-19.48],[147.011853891344,-18.8553874815177],[146.707117602854,-18.539910705394],[146.389131910516,-18.1195676236302],[146.258530644021,-17.5286707101778],[146.120358289612,-17.0950804637183],[146.03896909455,-16.9068759114328],[145.68123519067,-16.4428056558182],[145.510885712632,-15.8465944195596],[145.493850764829,-15.7245881806417],[145.402997709875,-15.6426025730541],[145.372713358224,-15.46941411698],[145.416247113722,-14.9434996207714],[145.325394058769,-14.8246235247504],[145.213720512055,-14.6763942654312],[144.946839663129,-14.5390553183592],[144.785954044982,-14.4584433276052],[144.679958814203,-14.3448040849012],[144.282476698782,-13.9484519135276],[144.246514031196,-13.8713036618114],[144.034523569638,-13.6452223671253],[143.841460827861,-13.1850430166038],[143.750059217892,-12.9422911711809],[143.729457178068,-12.3091622430187],[143.379222501058,-11.9970562599061],[143.317416381585,-11.6240699323772],[142.987783744399,-10.745104435533399],[142.616947027564,-10.3806324556585],[142.441829689059,-10.3603714130314],[142.328518470026,-10.3806324556585],[142.143100111608,-10.4616634778006],[141.85,-10.6]],"type":"LineString"},"id":22,"properties":{"corridor_time_h":61,"distance_km":738,"id_name":"Abbot Point - Torres Strait","pilot_cost":0,"total_consumption":1,"transit_arrival_time":"-1:00","type_specific":null,"wating_time":0},"type":"Feature"},{"geometry":{"coordinates":[[141.85,-10.6],[142.103108585778,-10.4808651490121],[142.342975124711,-10.4247141712484],[142.697063825041,-10.4303297255585],[142.999752552743,-10.5145508534771],[143.131108038349,-10.6436452405714],[143.519463387099,-11.5345519235937],[143.565152251658,-11.8756095235122],[143.725063277613,-12.099023098356],[143.584924644781,-12.5317655814523],[143.799307682521,-13.0575349184916],[143.959218708477,-13.5132112738655],[144.107707518293,-13.746271542528],[144.245627520329,-13.8835267002472],[144.44806070813,-14.0763356985705],[144.585418354878,-14.1787168217428],[144.673337612558,-14.3368098742301],[144.826514607601,-14.5007188191493],[144.936304198,-14.5496530139736],[145.180441576652,-14.7648341896674],[145.413022156314,-14.9239872529587],[145.408688356693,-15.0104948245651],[145.405799156945,-15.101150652235],[145.379796359219,-15.4104821736468],[145.389908558335,-15.6331392715336],[145.50981034785,-15.7360365677446],[145.570483542545,-16.2691475695717],[145.61959993825,-16.3980448268804],[145.970637707553,-16.8077279368035],[146.041423101363,-16.9265927969514],[146.281226680393,-17.5459494428095],[146.383793271424,-18.1041768242704],[146.75938923858,-18.6893648369241],[147.075756610916,-19.0392409095786],[147.487467574913,-19.2575405602063],[148.088421122363,-19.7530868392242],[148.70815446817,-20.0070723734777],[148.822277858191,-20.15764054007],[148.880061853138,-20.2999363457304],[149.014409641389,-20.5543868322088],[149.111197832926,-20.6192852955847],[149.18342782661,-20.6517241640977],[149.34088921284,-20.7422460159011],[149.351001411956,-21.021575198186],[149.240158855004,-21.0898522312585],[149.240158855004,-21.0898522312585]],"type":"LineString"},"id":23,"properties":{"corridor_time_h":71,"distance_km":859,"id_name":"Torres Strait - Mackay","pilot_cost":0,"total_consumption":1,"transit_arrival_time":"-1:00","type_specific":null,"wating_time":0},"type":"Feature"},{"geometry":{"coordinates":[[149.240158855004,-21.0898522312585],[149.240158855004,-21.0898522312585],[149.351001411956,-21.021575198186],[149.34088921284,-20.7422460159011],[149.18342782661,-20.6517241640977],[149.111197832926,-20.6192852955847],[149.014409641389,-20.5543868322088],[148.880061853138,-20.2999363457304],[148.822277858191,-20.15764054007],[148.70815446817,-20.0070723734777],[148.088421122363,-19.7530868392242],[147.487467574913,-19.2575405602063],[147.075756610916,-19.0392409095786],[146.75938923858,-18.6893648369241],[146.383793271424,-18.1041768242704],[146.281226680393,-17.5459494428095],[146.041423101363,-16.9265927969514],[145.970637707553,-16.8077279368035],[145.61959993825,-16.3980448268804],[145.570483542545,-16.2691475695717],[145.50981034785,-15.7360365677446],[145.389908558335,-15.6331392715336],[145.379796359219,-15.4104821736468],[145.405799156945,-15.101150652235],[145.408688356693,-15.0104948245651],[145.413022156314,-14.9239872529587],[145.180441576652,-14.7648341896674],[144.936304198,-14.5496530139736],[144.826514607601,-14.5007188191493],[144.673337612558,-14.3368098742301],[144.585418354878,-14.1787168217428],[144.44806070813,-14.0763356985705],[144.245627520329,-13.8835267002472],[144.107707518293,-13.746271542528],[143.959218708477,-13.5132112738655],[143.799307682521,-13.0575349184916],[143.584924644781,-12.5317655814523],[143.725063277613,-12.099023098356],[143.565152251658,-11.8756095235122],[143.519463387099,-11.5345519235937],[143.131108038349,-10.6436452405714],[142.999752552743,-10.5145508534771],[142.697063825041,-10.4303297255585],[142.342975124711,-10.4247141712484],[142.103108585778,-10.4808651490121],[141.85,-10.6]],"type":"LineString"},"id":24,"properties":{"corridor_time_h":71,"distance_km":859,"id_name":"Mackay - Torres Strait","pilot_cost":0,"total_consumption":1,"transit_arrival_time":"-1:00","type_specific":null,"wating_time":0},"type":"Feature"},{"geometry":{"coordinates":[[141.85,-10.6],[142.151356663232,-10.4773794179978],[142.398816758119,-10.456861087076],[142.974236014903,-10.4978963901629],[143.346916880695,-11.1624802525443],[143.552636718613,-11.6241633819289],[143.591395528655,-11.8984749760921],[143.689783277225,-12.1258856283694],[143.689783277225,-12.4753686217477],[143.776245238089,-13.06549858597],[143.922336137479,-13.4194847609577],[144.026686779901,-13.6281509644247],[144.187684913924,-13.8105829762391],[144.245627520329,-13.8835267002472],[144.44806070813,-14.0763356985705],[144.585418354878,-14.1787168217428],[144.673337612558,-14.3368098742301],[144.673660762918,-14.3512405492693],[144.810807321529,-14.478266517696],[144.953916773994,-14.5648334992826],[145.225228444291,-14.7090362226824],[145.374300790608,-14.8819537369721],[145.392189472166,-15.1209275630964],[145.368337896755,-15.4314781030666],[145.392189472166,-15.6210311358576],[145.574057734673,-16.0655014145243],[145.627723779347,-16.4089282746727],[145.893072555791,-16.7774369375404],[146.045126349035,-16.8944111470717],[146.229976058468,-17.3985598437203],[146.298549337774,-17.7707961560743],[146.453584577944,-18.1819109918066],[146.793469527547,-18.7304392998298],[147.869771867956,-19.5049407217272],[148.559915769201,-19.9517122208766],[148.720956671027,-20.0252040999612],[148.835985886618,-20.1634485108365],[148.914466981202,-20.3835224139943],[149.040225690926,-20.569077127059],[149.132462457559,-20.6233622794434],[149.23610995821,-20.6633963035947],[149.331848099672,-20.7626851392907],[149.368284293902,-20.9149234292958],[149.351316772462,-21.1276942659272],[149.316667,-21.266667]],"type":"LineString"},"id":25,"properties":{"corridor_time_h":72,"distance_km":864,"id_name":"Torres Strait - Hay Point","pilot_cost":0,"total_consumption":1,"transit_arrival_time":"-1:00","type_specific":null,"wating_time":0},"type":"Feature"},{"geometry":{"coordinates":[[149.316667,-21.266667],[149.351316772462,-21.1276942659272],[149.368284293902,-20.9149234292958],[149.331848099672,-20.7626851392907],[149.23610995821,-20.6633963035947],[149.132462457559,-20.6233622794434],[149.040225690926,-20.569077127059],[148.914466981202,-20.3835224139943],[148.835985886618,-20.1634485108365],[148.720956671027,-20.0252040999612],[148.559915769201,-19.9517122208766],[147.869771867956,-19.5049407217272],[146.793469527547,-18.7304392998298],[146.453584577944,-18.1819109918066],[146.298549337774,-17.7707961560743],[146.229976058468,-17.3985598437203],[146.045126349035,-16.8944111470717],[145.893072555791,-16.7774369375404],[145.627723779347,-16.4089282746727],[145.574057734673,-16.0655014145243],[145.392189472166,-15.6210311358576],[145.368337896755,-15.4314781030666],[145.392189472166,-15.1209275630964],[145.374300790608,-14.8819537369721],[145.225228444291,-14.7090362226824],[144.953916773994,-14.5648334992826],[144.810807321529,-14.478266517696],[144.673660762918,-14.3512405492693],[144.673337612558,-14.3368098742301],[144.585418354878,-14.1787168217428],[144.44806070813,-14.0763356985705],[144.245627520329,-13.8835267002472],[144.187684913924,-13.8105829762391],[144.026686779901,-13.6281509644247],[143.922336137479,-13.4194847609577],[143.776245238089,-13.06549858597],[143.689783277225,-12.4753686217477],[143.689783277225,-12.1258856283694],[143.591395528655,-11.8984749760921],[143.552636718613,-11.6241633819289],[143.346916880695,-11.1624802525443],[142.974236014903,-10.4978963901629],[142.398816758119,-10.456861087076],[142.151356663232,-10.4773794179978],[141.85,-10.6]],"type":"LineString"},"id":26,"properties":{"corridor_time_h":72,"distance_km":864,"id_name":"Hay Point - Torres Strait","pilot_cost":0,"total_consumption":1,"transit_arrival_time":"-1:00","type_specific":null,"wating_time":0},"type":"Feature"},{"geometry":{"coordinates":[[141.85,-10.6],[142.147309457202,-10.5437870365134],[142.201493296251,-10.5141982423141],[142.296616035913,-10.4869740465172],[142.367657069332,-10.4775041994044],[142.550678036785,-10.6065058656557],[142.656637544258,-10.7212598146156],[142.810760464218,-10.8135046539263],[142.961271128241,-11.2412404620901],[142.951638445744,-11.3746314911345],[142.973688301919,-11.594319964915],[143.068829273602,-11.6916234410415],[143.246425754077,-11.8785431220192],[143.304215085025,-11.9543781132318],[143.280958403058,-12.0164091275381],[143.230216551494,-12.0866936630731],[143.258406469029,-12.2423562431391],[143.326626849791,-12.371189356728],[143.483726923982,-12.6169123238629],[143.498869099807,-12.7516829281307],[143.74871500093,-12.8587098606742],[143.841460827861,-13.1850430166038],[144.034523569638,-13.6452223671253],[144.246514031196,-13.8713036618114],[144.245627520329,-13.8835267002472],[144.44806070813,-14.0763356985705],[144.585418354878,-14.1787168217428],[144.673337612558,-14.3368098742301],[144.679958814203,-14.3448040849012],[144.785954044982,-14.4584433276052],[144.946839663129,-14.5390553183592],[145.213720512055,-14.6763942654312],[145.325394058769,-14.8246235247504],[145.416247113722,-14.9434996207714],[145.372713358224,-15.46941411698],[145.402997709875,-15.6426025730541],[145.493850764829,-15.7245881806417],[145.510885712632,-15.8465944195596],[145.68123519067,-16.4428056558182],[146.03896909455,-16.9068759114328],[146.120358289612,-17.0950804637183],[146.258530644021,-17.5286707101778],[146.389131910516,-18.1195676236302],[146.707117602854,-18.539910705394],[147.011853891344,-18.8553874815177],[147.887236870399,-19.4994869820253],[148.68325580301,-19.9954718561467],[148.833853979449,-20.1671859765375],[148.91787527339,-20.3864777028671],[149.003050012409,-20.5371791516163],[149.239646509683,-20.6594042207324],[149.347534512441,-20.7532205637396],[149.364569460244,-20.8947198936738],[149.394853811896,-21.0007569665471],[149.644699713018,-21.2126049639813],[149.921044421835,-21.3924371660906],[150.105207758304,-21.6694805189303],[150.470097741274,-22.0385372990671],[150.738709608754,-22.3404238328029],[150.888883249989,-22.6821125858354],[151.181057296237,-23.3899623090605],[151.247747415191,-23.4803955874804],[151.294223777099,-23.5298489478376],[151.36024308739,-23.7311878405657],[151.345725021095,-23.7487424435278]],"type":"LineString"},"id":27,"properties":{"corridor_time_h":88,"distance_km":1060,"id_name":"Torres Strait - Gladstone","pilot_cost":0,"total_consumption":1,"transit_arrival_time":"-1:00","type_specific":null,"wating_time":0},"type":"Feature"},{"geometry":{"coordinates":[[151.345725021095,-23.7487424435278],[151.36024308739,-23.7311878405657],[151.294223777099,-23.5298489478376],[151.247747415191,-23.4803955874804],[151.181057296237,-23.3899623090605],[150.888883249989,-22.6821125858354],[150.738709608754,-22.3404238328029],[150.470097741274,-22.0385372990671],[150.105207758304,-21.6694805189303],[149.921044421835,-21.3924371660906],[149.644699713018,-21.2126049639813],[149.394853811896,-21.0007569665471],[149.364569460244,-20.8947198936738],[149.347534512441,-20.7532205637396],[149.239646509683,-20.6594042207324],[149.003050012409,-20.5371791516163],[148.91787527339,-20.3864777028671],[148.833853979449,-20.1671859765375],[148.68325580301,-19.9954718561467],[147.887236870399,-19.4994869820253],[147.011853891344,-18.8553874815177],[146.707117602854,-18.539910705394],[146.389131910516,-18.1195676236302],[146.258530644021,-17.5286707101778],[146.120358289612,-17.0950804637183],[146.03896909455,-16.9068759114328],[145.68123519067,-16.4428056558182],[145.510885712632,-15.8465944195596],[145.493850764829,-15.7245881806417],[145.402997709875,-15.6426025730541],[145.372713358224,-15.46941411698],[145.416247113722,-14.9434996207714],[145.325394058769,-14.8246235247504],[145.213720512055,-14.6763942654312],[144.946839663129,-14.5390553183592],[144.785954044982,-14.4584433276052],[144.679958814203,-14.3448040849012],[144.673337612558,-14.3368098742301],[144.585418354878,-14.1787168217428],[144.44806070813,-14.0763356985705],[144.245627520329,-13.8835267002472],[144.246514031196,-13.8713036618114],[144.034523569638,-13.6452223671253],[143.841460827861,-13.1850430166038],[143.74871500093,-12.8587098606742],[143.498869099807,-12.7516829281307],[143.483726923982,-12.6169123238629],[143.326626849791,-12.371189356728],[143.258406469029,-12.2423562431391],[143.230216551494,-12.0866936630731],[143.280958403058,-12.0164091275381],[143.304215085025,-11.9543781132318],[143.246425754077,-11.8785431220192],[143.068829273602,-11.6916234410415],[142.973688301919,-11.594319964915],[142.951638445744,-11.3746314911345],[142.961271128241,-11.2412404620901],[142.810760464218,-10.8135046539263],[142.656637544258,-10.7212598146156],[142.550678036785,-10.6065058656557],[142.367657069332,-10.4775041994044],[142.296616035913,-10.4869740465172],[142.201493296251,-10.5141982423141],[142.147309457202,-10.5437870365134],[141.85,-10.6]],"type":"LineString"},"id":28,"properties":{"corridor_time_h":88,"distance_km":1060,"id_name":"Gladstone - Torres Strait","pilot_cost":0,"total_consumption":1,"transit_arrival_time":"-1:00","type_specific":null,"wating_time":0},"type":"Feature"},{"geometry":{"coordinates":[[141.85,-10.6],[142.071175220971,-10.5643120728905],[142.129428654262,-10.5629928660626],[142.212916293679,-10.5089005170979],[142.339624222312,-10.4761766407858],[142.384565485833,-10.508917129393],[142.557245040764,-10.6150787593656],[142.682239028224,-10.753849845487],[142.810845558674,-10.812036672091],[142.842635936988,-10.916318920848],[142.91922184838,-11.1502881457943],[142.99255647108,-11.361761966453],[142.969942477461,-11.5867822845901],[143.18980220956,-11.8293520484348],[143.31194650517,-11.9588275306813],[143.235170090786,-12.0882410714007],[143.248860989855,-12.2349040198379],[143.267652419949,-12.2674264886723],[143.373152877476,-12.4362687289376],[143.58740901163,-12.8196862617032],[143.608348033734,-12.845069878283],[143.653715914961,-12.8667878446718],[143.728613186335,-12.9737801856777],[143.780692292595,-13.1113114529802],[143.840824868896,-13.2835091954909],[143.884582056114,-13.3561145034478],[144.074643949064,-13.6841311974562],[144.245627520329,-13.8835267002472],[144.44806070813,-14.0763356985705],[144.585418354878,-14.1787168217428],[144.673337612558,-14.3368098742301],[144.797845558677,-14.4474505819262],[144.965089286513,-14.5519068891728],[145.075690275065,-14.6654015897031],[145.277295475073,-14.8369601867628],[145.37689005457,-14.9085541782515],[145.399171321682,-15.0467461097416],[145.399439770683,-15.1887337548901],[145.388129883161,-15.4097984350769],[145.403482258998,-15.6460551120991],[145.458460627938,-15.6916991312019],[145.500091382694,-15.7329796235101],[145.501037536211,-16.0110997702043],[145.65526055951,-16.5117649987166],[145.924598927399,-16.7812383917696],[146.033406581874,-16.8910935293471],[146.052014267712,-16.9520295391451],[146.163975767245,-17.3295702165497],[146.256068042916,-17.6471519997659],[146.305898794821,-17.8213441131064],[146.518152567174,-18.3509749720156],[146.637972124818,-18.5584473720624],[146.772352478788,-18.7416885462389],[146.882421671286,-19.0045461200923],[147.015198548196,-19.0605847932155],[147.084898523961,-19.140734854151],[147.292241511023,-19.2082381689858],[147.476606080072,-19.2574637792117],[147.704313693205,-19.3958228001118],[147.881559785422,-19.501372651748],[148.141572961947,-19.7380561870189],[148.714268031126,-19.9960984821169],[148.885263501303,-20.2712599570173],[148.92190538777,-20.3995022458432],[149.044045009325,-20.7287770542701],[150.251687048979,-21.5718663417205],[150.406064793738,-21.655184168601],[150.748583622069,-21.9302222331568],[151.66022787575,-22.6201326943282],[153.579276700801,-24.5019726301488],[153.583784948918,-24.5430177534981]],"type":"LineString"},"id":29,"properties":{"corridor_time_h":95,"distance_km":1144,"id_name":"Torres Strait - New Castle","pilot_cost":0,"total_consumption":1,"transit_arrival_time":"-1:00","type_specific":null,"wating_time":0},"type":"Feature"},{"geometry":{"coordinates":[[153.583784948918,-24.5430177534981],[153.579276700801,-24.5019726301488],[151.66022787575,-22.6201326943282],[150.748583622069,-21.9302222331568],[150.406064793738,-21.655184168601],[150.251687048979,-21.5718663417205],[149.044045009325,-20.7287770542701],[148.92190538777,-20.3995022458432],[148.885263501303,-20.2712599570173],[148.714268031126,-19.9960984821169],[148.141572961947,-19.7380561870189],[147.881559785422,-19.501372651748],[147.704313693205,-19.3958228001118],[147.476606080072,-19.2574637792117],[147.292241511023,-19.2082381689858],[147.084898523961,-19.140734854151],[147.015198548196,-19.0605847932155],[146.882421671286,-19.0045461200923],[146.772352478788,-18.7416885462389],[146.637972124818,-18.5584473720624],[146.518152567174,-18.3509749720156],[146.305898794821,-17.8213441131064],[146.256068042916,-17.6471519997659],[146.163975767245,-17.3295702165497],[146.052014267712,-16.9520295391451],[146.033406581874,-16.8910935293471],[145.924598927399,-16.7812383917696],[145.65526055951,-16.5117649987166],[145.501037536211,-16.0110997702043],[145.500091382694,-15.7329796235101],[145.458460627938,-15.6916991312019],[145.403482258998,-15.6460551120991],[145.388129883161,-15.4097984350769],[145.399439770683,-15.1887337548901],[145.399171321682,-15.0467461097416],[145.37689005457,-14.9085541782515],[145.277295475073,-14.8369601867628],[145.075690275065,-14.6654015897031],[144.965089286513,-14.5519068891728],[144.797845558677,-14.4474505819262],[144.673337612558,-14.3368098742301],[144.585418354878,-14.1787168217428],[144.44806070813,-14.0763356985705],[144.245627520329,-13.8835267002472],[144.074643949064,-13.6841311974562],[143.884582056114,-13.3561145034478],[143.840824868896,-13.2835091954909],[143.780692292595,-13.1113114529802],[143.728613186335,-12.9737801856777],[143.653715914961,-12.8667878446718],[143.608348033734,-12.845069878283],[143.58740901163,-12.8196862617032],[143.373152877476,-12.4362687289376],[143.267652419949,-12.2674264886723],[143.248860989855,-12.2349040198379],[143.235170090786,-12.0882410714007],[143.31194650517,-11.9588275306813],[143.18980220956,-11.8293520484348],[142.969942477461,-11.5867822845901],[142.99255647108,-11.361761966453],[142.91922184838,-11.1502881457943],[142.842635936988,-10.916318920848],[142.810845558674,-10.812036672091],[142.682239028224,-10.753849845487],[142.557245040764,-10.6150787593656],[142.384565485833,-10.508917129393],[142.339624222312,-10.4761766407858],[142.212916293679,-10.5089005170979],[142.129428654262,-10.5629928660626],[142.071175220971,-10.5643120728905],[141.85,-10.6]],"type":"LineString"},"id":30,"properties":{"corridor_time_h":95,"distance_km":1144,"id_name":"New Castle - Torres Strait","pilot_cost":0,"total_consumption":1,"transit_arrival_time":"-1:00","type_specific":null,"wating_time":0},"type":"Feature"},{"geometry":{"coordinates":[[141.85,-10.6],[141.914573642811,-10.5770920242125],[142.055101565129,-10.5643103821883],[142.136745036707,-10.5611148885646],[142.204587982408,-10.5176728551746],[142.313306100687,-10.4896181453551],[142.384565485833,-10.508917129393],[142.557245040764,-10.6150787593656],[142.682239028224,-10.753849845487],[142.810845558674,-10.812036672091],[142.842635936988,-10.916318920848],[142.91922184838,-11.1502881457943],[142.99255647108,-11.361761966453],[142.967629924448,-11.5295543231101],[142.969436195943,-11.5787403204038],[143.003394100051,-11.6240262515984],[143.134529410594,-11.7771653325127],[143.310460254216,-11.9630808801199],[143.232790579927,-12.089543617298],[143.251575803476,-12.2403022635585],[143.271501579491,-12.2793570917746],[143.37151223075,-12.4354191002056],[143.477359740362,-12.6177015545487],[143.607772542307,-12.8364804009744],[143.701337405753,-12.9255581684551],[143.749022973223,-13.0244570952541],[143.810436204056,-13.192600024902],[143.837530276483,-13.2797919045955],[143.881964555262,-13.3571133426892],[143.961440501046,-13.4828834048989],[144.071261807947,-13.6780820746724],[144.150737753731,-13.7682542782102],[144.245627520329,-13.8835267002472],[144.44806070813,-14.0763356985705],[144.585418354878,-14.1787168217428],[144.673337612558,-14.3368098742301],[144.675640250204,-14.3421449061233],[144.792325388787,-14.4446475369974],[144.928157005217,-14.52682543937],[145.260382817539,-14.7376451210502],[145.224746784711,-14.677463752596],[145.308837301784,-14.8005572795219],[145.37517412809,-14.9124078262612],[145.399537073678,-15.0427838580172],[145.387036218516,-15.2082031388669],[145.371574634501,-15.6859459594355],[145.439671398143,-15.8347165063862],[145.47256838541,-15.9204472676037],[145.517308288093,-16.0807381943059],[145.579483594027,-16.28320895242],[145.66329043634,-16.5099603958494],[145.912401105168,-16.7612283924232],[146.037738626654,-16.8956534752091],[146.152549112216,-17.2829639974985],[146.305191133134,-17.8154379231957],[146.396644757736,-18.123598957141],[146.560861996899,-18.4286149705536],[146.688770004665,-18.5132618200241],[147.021358545933,-18.7632038744591],[147.5621850166,-19.2141524484014],[147.389475833449,-19.0737120764423],[147.842796317986,-19.4649059997892],[148.390822858806,-19.7092787977544],[149.145171376069,-20.0633105491865],[149.94076436892,-20.9512926472248],[150.354660521776,-21.4473273894446],[150.85746848003,-21.9198958443727],[153.620099951254,-24.5017427127165]],"type":"LineString"},"id":31,"properties":{"corridor_time_h":97,"distance_km":1173,"id_name":"Torres Strait - Port Kembla","pilot_cost":0,"total_consumption":1,"transit_arrival_time":"-1:00","type_specific":null,"wating_time":0},"type":"Feature"},{"geometry":{"coordinates":[[153.620099951254,-24.5017427127165],[150.85746848003,-21.9198958443727],[150.354660521776,-21.4473273894446],[149.94076436892,-20.9512926472248],[149.145171376069,-20.0633105491865],[148.390822858806,-19.7092787977544],[147.842796317986,-19.4649059997892],[147.389475833449,-19.0737120764423],[147.5621850166,-19.2141524484014],[147.021358545933,-18.7632038744591],[146.688770004665,-18.5132618200241],[146.560861996899,-18.4286149705536],[146.396644757736,-18.123598957141],[146.305191133134,-17.8154379231957],[146.152549112216,-17.2829639974985],[146.037738626654,-16.8956534752091],[145.912401105168,-16.7612283924232],[145.66329043634,-16.5099603958494],[145.579483594027,-16.28320895242],[145.517308288093,-16.0807381943059],[145.47256838541,-15.9204472676037],[145.439671398143,-15.8347165063862],[145.371574634501,-15.6859459594355],[145.387036218516,-15.2082031388669],[145.399537073678,-15.0427838580172],[145.37517412809,-14.9124078262612],[145.308837301784,-14.8005572795219],[145.224746784711,-14.677463752596],[145.260382817539,-14.7376451210502],[144.928157005217,-14.52682543937],[144.792325388787,-14.4446475369974],[144.675640250204,-14.3421449061233],[144.673337612558,-14.3368098742301],[144.585418354878,-14.1787168217428],[144.44806070813,-14.0763356985705],[144.245627520329,-13.8835267002472],[144.150737753731,-13.7682542782102],[144.071261807947,-13.6780820746724],[143.961440501046,-13.4828834048989],[143.881964555262,-13.3571133426892],[143.837530276483,-13.2797919045955],[143.810436204056,-13.192600024902],[143.749022973223,-13.0244570952541],[143.701337405753,-12.9255581684551],[143.607772542307,-12.8364804009744],[143.477359740362,-12.6177015545487],[143.37151223075,-12.4354191002056],[143.271501579491,-12.2793570917746],[143.251575803476,-12.2403022635585],[143.232790579927,-12.089543617298],[143.310460254216,-11.9630808801199],[143.134529410594,-11.7771653325127],[143.003394100051,-11.6240262515984],[142.969436195943,-11.5787403204038],[142.967629924448,-11.5295543231101],[142.99255647108,-11.361761966453],[142.91922184838,-11.1502881457943],[142.842635936988,-10.916318920848],[142.810845558674,-10.812036672091],[142.682239028224,-10.753849845487],[142.557245040764,-10.6150787593656],[142.384565485833,-10.508917129393],[142.313306100687,-10.4896181453551],[142.204587982408,-10.5176728551746],[142.136745036707,-10.5611148885646],[142.055101565129,-10.5643103821883],[141.914573642811,-10.5770920242125],[141.85,-10.6]],"type":"LineString"},"id":32,"properties":{"corridor_time_h":97,"distance_km":1173,"id_name":"Port Kembla - Torres Strait","pilot_cost":0,"total_consumption":1,"transit_arrival_time":"-1:00","type_specific":null,"wating_time":0},"type":"Feature"},{"geometry":{"coordinates":[[141.85,-10.6],[141.914573642811,-10.5770920242125],[142.055101565129,-10.5643103821883],[142.136745036707,-10.5611148885646],[142.204587982408,-10.5176728551746],[142.313306100687,-10.4896181453551],[142.384565485833,-10.508917129393],[142.557245040764,-10.6150787593656],[142.682239028224,-10.753849845487],[142.810845558674,-10.812036672091],[142.842635936988,-10.916318920848],[142.91922184838,-11.1502881457943],[142.99255647108,-11.361761966453],[142.967629924448,-11.5295543231101],[142.969436195943,-11.5787403204038],[143.003394100051,-11.6240262515984],[143.134529410594,-11.7771653325127],[143.310460254216,-11.9630808801199],[143.232790579927,-12.089543617298],[143.251575803476,-12.2403022635585],[143.271501579491,-12.2793570917746],[143.37151223075,-12.4354191002056],[143.477359740362,-12.6177015545487],[143.607772542307,-12.8364804009744],[143.701337405753,-12.9255581684551],[143.749022973223,-13.0244570952541],[143.810436204056,-13.192600024902],[143.837530276483,-13.2797919045955],[143.881964555262,-13.3571133426892],[143.961440501046,-13.4828834048989],[144.071261807947,-13.6780820746724],[144.150737753731,-13.7682542782102],[144.245627520329,-13.8835267002472],[144.44806070813,-14.0763356985705],[144.585418354878,-14.1787168217428],[144.673337612558,-14.3368098742301],[144.675640250204,-14.3421449061233],[144.792325388787,-14.4446475369974],[144.928157005217,-14.52682543937],[145.260382817539,-14.7376451210502],[145.224746784711,-14.677463752596],[145.308837301784,-14.8005572795219],[145.37517412809,-14.9124078262612],[145.399537073678,-15.0427838580172],[145.387036218516,-15.2082031388669],[145.371574634501,-15.6859459594355],[145.439671398143,-15.8347165063862],[145.47256838541,-15.9204472676037],[145.517308288093,-16.0807381943059],[145.579483594027,-16.28320895242],[145.66329043634,-16.5099603958494],[145.912401105168,-16.7612283924232],[146.037738626654,-16.8956534752091],[146.152549112216,-17.2829639974985],[146.305191133134,-17.8154379231957],[146.396644757736,-18.123598957141],[146.560861996899,-18.4286149705536],[146.688770004665,-18.5132618200241],[147.021358545933,-18.7632038744591],[147.5621850166,-19.2141524484014],[147.389475833449,-19.0737120764423],[147.842796317986,-19.4649059997892],[148.390822858806,-19.7092787977544],[149.145171376069,-20.0633105491865],[149.94076436892,-20.9512926472248],[150.354660521776,-21.4473273894446],[150.85746848003,-21.9198958443727],[153.620099951254,-24.5017427127165]],"type":"LineString"},"id":33,"properties":{"corridor_time_h":97,"distance_km":1173,"id_name":"Torres Strait - Botany Bay","pilot_cost":0,"total_consumption":1,"transit_arrival_time":"-1:00","type_specific":null,"wating_time":0},"type":"Feature"},{"geometry":{"coordinates":[[153.620099951254,-24.5017427127165],[150.85746848003,-21.9198958443727],[150.354660521776,-21.4473273894446],[149.94076436892,-20.9512926472248],[149.145171376069,-20.0633105491865],[148.390822858806,-19.7092787977544],[147.842796317986,-19.4649059997892],[147.389475833449,-19.0737120764423],[147.5621850166,-19.2141524484014],[147.021358545933,-18.7632038744591],[146.688770004665,-18.5132618200241],[146.560861996899,-18.4286149705536],[146.396644757736,-18.123598957141],[146.305191133134,-17.8154379231957],[146.152549112216,-17.2829639974985],[146.037738626654,-16.8956534752091],[145.912401105168,-16.7612283924232],[145.66329043634,-16.5099603958494],[145.579483594027,-16.28320895242],[145.517308288093,-16.0807381943059],[145.47256838541,-15.9204472676037],[145.439671398143,-15.8347165063862],[145.371574634501,-15.6859459594355],[145.387036218516,-15.2082031388669],[145.399537073678,-15.0427838580172],[145.37517412809,-14.9124078262612],[145.308837301784,-14.8005572795219],[145.224746784711,-14.677463752596],[145.260382817539,-14.7376451210502],[144.928157005217,-14.52682543937],[144.792325388787,-14.4446475369974],[144.675640250204,-14.3421449061233],[144.673337612558,-14.3368098742301],[144.585418354878,-14.1787168217428],[144.44806070813,-14.0763356985705],[144.245627520329,-13.8835267002472],[144.150737753731,-13.7682542782102],[144.071261807947,-13.6780820746724],[143.961440501046,-13.4828834048989],[143.881964555262,-13.3571133426892],[143.837530276483,-13.2797919045955],[143.810436204056,-13.192600024902],[143.749022973223,-13.0244570952541],[143.701337405753,-12.9255581684551],[143.607772542307,-12.8364804009744],[143.477359740362,-12.6177015545487],[143.37151223075,-12.4354191002056],[143.271501579491,-12.2793570917746],[143.251575803476,-12.2403022635585],[143.232790579927,-12.089543617298],[143.310460254216,-11.9630808801199],[143.134529410594,-11.7771653325127],[143.003394100051,-11.6240262515984],[142.969436195943,-11.5787403204038],[142.967629924448,-11.5295543231101],[142.99255647108,-11.361761966453],[142.91922184838,-11.1502881457943],[142.842635936988,-10.916318920848],[142.810845558674,-10.812036672091],[142.682239028224,-10.753849845487],[142.557245040764,-10.6150787593656],[142.384565485833,-10.508917129393],[142.313306100687,-10.4896181453551],[142.204587982408,-10.5176728551746],[142.136745036707,-10.5611148885646],[142.055101565129,-10.5643103821883],[141.914573642811,-10.5770920242125],[141.85,-10.6]],"type":"LineString"},"id":34,"properties":{"corridor_time_h":97,"distance_km":1173,"id_name":"Botany Bay - Torres Strait","pilot_cost":0,"total_consumption":1,"transit_arrival_time":"-1:00","type_specific":null,"wating_time":0},"type":"Feature"},{"geometry":{"coordinates":[[141.85,-10.6],[141.914573642811,-10.5770920242125],[142.055101565129,-10.5643103821883],[142.136745036707,-10.5611148885646],[142.204587982408,-10.5176728551746],[142.313306100687,-10.4896181453551],[142.384565485833,-10.508917129393],[142.557245040764,-10.6150787593656],[142.682239028224,-10.753849845487],[142.810845558674,-10.812036672091],[142.842635936988,-10.916318920848],[142.91922184838,-11.1502881457943],[142.99255647108,-11.361761966453],[142.967629924448,-11.5295543231101],[142.969436195943,-11.5787403204038],[143.003394100051,-11.6240262515984],[143.134529410594,-11.7771653325127],[143.310460254216,-11.9630808801199],[143.232790579927,-12.089543617298],[143.251575803476,-12.2403022635585],[143.271501579491,-12.2793570917746],[143.37151223075,-12.4354191002056],[143.477359740362,-12.6177015545487],[143.607772542307,-12.8364804009744],[143.701337405753,-12.9255581684551],[143.749022973223,-13.0244570952541],[143.810436204056,-13.192600024902],[143.837530276483,-13.2797919045955],[143.881964555262,-13.3571133426892],[143.961440501046,-13.4828834048989],[144.071261807947,-13.6780820746724],[144.150737753731,-13.7682542782102],[144.245627520329,-13.8835267002472],[144.44806070813,-14.0763356985705],[144.585418354878,-14.1787168217428],[144.673337612558,-14.3368098742301],[144.675640250204,-14.3421449061233],[144.792325388787,-14.4446475369974],[144.928157005217,-14.52682543937],[145.260382817539,-14.7376451210502],[145.224746784711,-14.677463752596],[145.308837301784,-14.8005572795219],[145.37517412809,-14.9124078262612],[145.399537073678,-15.0427838580172],[145.387036218516,-15.2082031388669],[145.371574634501,-15.6859459594355],[145.439671398143,-15.8347165063862],[145.47256838541,-15.9204472676037],[145.517308288093,-16.0807381943059],[145.579483594027,-16.28320895242],[145.66329043634,-16.5099603958494],[145.912401105168,-16.7612283924232],[146.037738626654,-16.8956534752091],[146.152549112216,-17.2829639974985],[146.305191133134,-17.8154379231957],[146.396644757736,-18.123598957141],[146.560861996899,-18.4286149705536],[146.688770004665,-18.5132618200241],[147.021358545933,-18.7632038744591],[147.5621850166,-19.2141524484014],[147.389475833449,-19.0737120764423],[147.842796317986,-19.4649059997892],[148.390822858806,-19.7092787977544],[149.145171376069,-20.0633105491865],[149.94076436892,-20.9512926472248],[150.354660521776,-21.4473273894446],[150.85746848003,-21.9198958443727],[153.620099951254,-24.5017427127165]],"type":"LineString"},"id":35,"properties":{"corridor_time_h":97,"distance_km":1173,"id_name":"Torres Strait - Sydney (Australia)","pilot_cost":0,"total_consumption":1,"transit_arrival_time":"-1:00","type_specific":null,"wating_time":0},"type":"Feature"},{"geometry":{"coordinates":[[153.620099951254,-24.5017427127165],[150.85746848003,-21.9198958443727],[150.354660521776,-21.4473273894446],[149.94076436892,-20.9512926472248],[149.145171376069,-20.0633105491865],[148.390822858806,-19.7092787977544],[147.842796317986,-19.4649059997892],[147.389475833449,-19.0737120764423],[147.5621850166,-19.2141524484014],[147.021358545933,-18.7632038744591],[146.688770004665,-18.5132618200241],[146.560861996899,-18.4286149705536],[146.396644757736,-18.123598957141],[146.305191133134,-17.8154379231957],[146.152549112216,-17.2829639974985],[146.037738626654,-16.8956534752091],[145.912401105168,-16.7612283924232],[145.66329043634,-16.5099603958494],[145.579483594027,-16.28320895242],[145.517308288093,-16.0807381943059],[145.47256838541,-15.9204472676037],[145.439671398143,-15.8347165063862],[145.371574634501,-15.6859459594355],[145.387036218516,-15.2082031388669],[145.399537073678,-15.0427838580172],[145.37517412809,-14.9124078262612],[145.308837301784,-14.8005572795219],[145.224746784711,-14.677463752596],[145.260382817539,-14.7376451210502],[144.928157005217,-14.52682543937],[144.792325388787,-14.4446475369974],[144.675640250204,-14.3421449061233],[144.673337612558,-14.3368098742301],[144.585418354878,-14.1787168217428],[144.44806070813,-14.0763356985705],[144.245627520329,-13.8835267002472],[144.150737753731,-13.7682542782102],[144.071261807947,-13.6780820746724],[143.961440501046,-13.4828834048989],[143.881964555262,-13.3571133426892],[143.837530276483,-13.2797919045955],[143.810436204056,-13.192600024902],[143.749022973223,-13.0244570952541],[143.701337405753,-12.9255581684551],[143.607772542307,-12.8364804009744],[143.477359740362,-12.6177015545487],[143.37151223075,-12.4354191002056],[143.271501579491,-12.2793570917746],[143.251575803476,-12.2403022635585],[143.232790579927,-12.089543617298],[143.310460254216,-11.9630808801199],[143.134529410594,-11.7771653325127],[143.003394100051,-11.6240262515984],[142.969436195943,-11.5787403204038],[142.967629924448,-11.5295543231101],[142.99255647108,-11.361761966453],[142.91922184838,-11.1502881457943],[142.842635936988,-10.916318920848],[142.810845558674,-10.812036672091],[142.682239028224,-10.753849845487],[142.557245040764,-10.6150787593656],[142.384565485833,-10.508917129393],[142.313306100687,-10.4896181453551],[142.204587982408,-10.5176728551746],[142.136745036707,-10.5611148885646],[142.055101565129,-10.5643103821883],[141.914573642811,-10.5770920242125],[141.85,-10.6]],"type":"LineString"},"id":36,"properties":{"corridor_time_h":97,"distance_km":1173,"id_name":"Sydney (Australia) - Torres Strait","pilot_cost":0,"total_consumption":1,"transit_arrival_time":"-1:00","type_specific":null,"wating_time":0},"type":"Feature"},{"geometry":{"coordinates":[[141.85,-10.6],[141.914573642811,-10.5770920242125],[142.055101565129,-10.5643103821883],[142.136745036707,-10.5611148885646],[142.204587982408,-10.5176728551746],[142.313306100687,-10.4896181453551],[142.384565485833,-10.508917129393],[142.557245040764,-10.6150787593656],[142.682239028224,-10.753849845487],[142.810845558674,-10.812036672091],[142.842635936988,-10.916318920848],[142.91922184838,-11.1502881457943],[142.99255647108,-11.361761966453],[142.967629924448,-11.5295543231101],[142.969436195943,-11.5787403204038],[143.003394100051,-11.6240262515984],[143.134529410594,-11.7771653325127],[143.310460254216,-11.9630808801199],[143.232790579927,-12.089543617298],[143.251575803476,-12.2403022635585],[143.271501579491,-12.2793570917746],[143.37151223075,-12.4354191002056],[143.477359740362,-12.6177015545487],[143.607772542307,-12.8364804009744],[143.701337405753,-12.9255581684551],[143.749022973223,-13.0244570952541],[143.810436204056,-13.192600024902],[143.837530276483,-13.2797919045955],[143.881964555262,-13.3571133426892],[143.961440501046,-13.4828834048989],[144.071261807947,-13.6780820746724],[144.150737753731,-13.7682542782102],[144.245627520329,-13.8835267002472],[144.44806070813,-14.0763356985705],[144.585418354878,-14.1787168217428],[144.673337612558,-14.3368098742301],[144.675640250204,-14.3421449061233],[144.792325388787,-14.4446475369974],[144.928157005217,-14.52682543937],[145.260382817539,-14.7376451210502],[145.224746784711,-14.677463752596],[145.308837301784,-14.8005572795219],[145.37517412809,-14.9124078262612],[145.399537073678,-15.0427838580172],[145.387036218516,-15.2082031388669],[145.371574634501,-15.6859459594355],[145.439671398143,-15.8347165063862],[145.47256838541,-15.9204472676037],[145.517308288093,-16.0807381943059],[145.579483594027,-16.28320895242],[145.66329043634,-16.5099603958494],[145.912401105168,-16.7612283924232],[146.037738626654,-16.8956534752091],[146.152549112216,-17.2829639974985],[146.305191133134,-17.8154379231957],[146.396644757736,-18.123598957141],[146.560861996899,-18.4286149705536],[146.688770004665,-18.5132618200241],[147.021358545933,-18.7632038744591],[147.5621850166,-19.2141524484014],[147.389475833449,-19.0737120764423],[147.842796317986,-19.4649059997892],[148.390822858806,-19.7092787977544],[149.145171376069,-20.0633105491865],[149.94076436892,-20.9512926472248],[150.354660521776,-21.4473273894446],[150.85746848003,-21.9198958443727],[153.620099951254,-24.5017427127165]],"type":"LineString"},"id":37,"properties":{"corridor_time_h":97,"distance_km":1173,"id_name":"Torres Strait - Brisbane","pilot_cost":0,"total_consumption":1,"transit_arrival_time":"-1:00","type_specific":null,"wating_time":0},"type":"Feature"},{"geometry":{"coordinates":[[153.620099951254,-24.5017427127165],[150.85746848003,-21.9198958443727],[150.354660521776,-21.4473273894446],[149.94076436892,-20.9512926472248],[149.145171376069,-20.0633105491865],[148.390822858806,-19.7092787977544],[147.842796317986,-19.4649059997892],[147.389475833449,-19.0737120764423],[147.5621850166,-19.2141524484014],[147.021358545933,-18.7632038744591],[146.688770004665,-18.5132618200241],[146.560861996899,-18.4286149705536],[146.396644757736,-18.123598957141],[146.305191133134,-17.8154379231957],[146.152549112216,-17.2829639974985],[146.037738626654,-16.8956534752091],[145.912401105168,-16.7612283924232],[145.66329043634,-16.5099603958494],[145.579483594027,-16.28320895242],[145.517308288093,-16.0807381943059],[145.47256838541,-15.9204472676037],[145.439671398143,-15.8347165063862],[145.371574634501,-15.6859459594355],[145.387036218516,-15.2082031388669],[145.399537073678,-15.0427838580172],[145.37517412809,-14.9124078262612],[145.308837301784,-14.8005572795219],[145.224746784711,-14.677463752596],[145.260382817539,-14.7376451210502],[144.928157005217,-14.52682543937],[144.792325388787,-14.4446475369974],[144.675640250204,-14.3421449061233],[144.673337612558,-14.3368098742301],[144.585418354878,-14.1787168217428],[144.44806070813,-14.0763356985705],[144.245627520329,-13.8835267002472],[144.150737753731,-13.7682542782102],[144.071261807947,-13.6780820746724],[143.961440501046,-13.4828834048989],[143.881964555262,-13.3571133426892],[143.837530276483,-13.2797919045955],[143.810436204056,-13.192600024902],[143.749022973223,-13.0244570952541],[143.701337405753,-12.9255581684551],[143.607772542307,-12.8364804009744],[143.477359740362,-12.6177015545487],[143.37151223075,-12.4354191002056],[143.271501579491,-12.2793570917746],[143.251575803476,-12.2403022635585],[143.232790579927,-12.089543617298],[143.310460254216,-11.9630808801199],[143.134529410594,-11.7771653325127],[143.003394100051,-11.6240262515984],[142.969436195943,-11.5787403204038],[142.967629924448,-11.5295543231101],[142.99255647108,-11.361761966453],[142.91922184838,-11.1502881457943],[142.842635936988,-10.916318920848],[142.810845558674,-10.812036672091],[142.682239028224,-10.753849845487],[142.557245040764,-10.6150787593656],[142.384565485833,-10.508917129393],[142.313306100687,-10.4896181453551],[142.204587982408,-10.5176728551746],[142.136745036707,-10.5611148885646],[142.055101565129,-10.5643103821883],[141.914573642811,-10.5770920242125],[141.85,-10.6]],"type":"LineString"},"id":38,"properties":{"corridor_time_h":97,"distance_km":1173,"id_name":"Brisbane - Torres Strait","pilot_cost":0,"total_consumption":1,"transit_arrival_time":"-1:00","type_specific":null,"wating_time":0},"type":"Feature"},{"geometry":{"coordinates":[[147.15,-18.1666666666667],[147.091988536974,-18.2467613288897],[146.927378024317,-18.4026040340839],[146.93711924975,-18.6654698406539],[146.928110742445,-19.0317238386481],[146.902196712351,-19.0998602756322]],"type":"LineString"},"id":39,"properties":{"corridor_time_h":6,"distance_km":60,"id_name":"Palm Passage - Townsville","pilot_cost":0,"total_consumption":1,"transit_arrival_time":"-1:00","type_specific":null,"wating_time":0},"type":"Feature"},{"geometry":{"coordinates":[[146.902196712351,-19.0998602756322],[146.928110742445,-19.0317238386481],[146.93711924975,-18.6654698406539],[146.927378024317,-18.4026040340839],[147.091988536974,-18.2467613288897],[147.15,-18.1666666666667]],"type":"LineString"},"id":40,"properties":{"corridor_time_h":6,"distance_km":60,"id_name":"Townsville - Palm Passage","pilot_cost":0,"total_consumption":1,"transit_arrival_time":"-1:00","type_specific":null,"wating_time":0},"type":"Feature"},{"geometry":{"coordinates":[[147.120462829029,-18.2622792580136],[147.064921904789,-18.3120009176027],[146.841197027421,-18.4508524184845],[146.72666099925,-18.6297891782676],[147.075756610916,-19.0392409095786],[147.487467574913,-19.2575405602063],[148.088421122363,-19.7530868392242],[148.70815446817,-20.0070723734777],[148.822277858191,-20.15764054007],[148.880061853138,-20.2999363457304],[149.014409641389,-20.5543868322088],[149.111197832926,-20.6192852955847],[149.18342782661,-20.6517241640977],[149.34088921284,-20.7422460159011],[149.351001411956,-21.021575198186],[149.240158855004,-21.0898522312585]],"type":"LineString"},"id":41,"properties":{"corridor_time_h":27,"distance_km":269,"id_name":"Palm Passage - Hay Point","pilot_cost":0,"total_consumption":1,"transit_arrival_time":"-1:00","type_specific":null,"wating_time":0},"type":"Feature"},{"geometry":{"coordinates":[[149.240158855004,-21.0898522312585],[149.351001411956,-21.021575198186],[149.34088921284,-20.7422460159011],[149.18342782661,-20.6517241640977],[149.111197832926,-20.6192852955847],[149.014409641389,-20.5543868322088],[148.880061853138,-20.2999363457304],[148.822277858191,-20.15764054007],[148.70815446817,-20.0070723734777],[148.088421122363,-19.7530868392242],[147.487467574913,-19.2575405602063],[147.075756610916,-19.0392409095786],[146.72666099925,-18.6297891782676],[146.841197027421,-18.4508524184845],[147.064921904789,-18.3120009176027],[147.120462829029,-18.2622792580136]],"type":"LineString"},"id":42,"properties":{"corridor_time_h":27,"distance_km":269,"id_name":"Hay Point - Palm Passage","pilot_cost":0,"total_consumption":1,"transit_arrival_time":"-1:00","type_specific":null,"wating_time":0},"type":"Feature"},{"geometry":{"coordinates":[[147.18253990633,-18.1964909707024],[147.063840130277,-18.2744015697232],[146.809462131779,-18.4816868010847],[146.870994305221,-18.7534254873668],[147.625521687817,-19.2191975796816],[148.107390640701,-19.5818122387595],[148.066667,-19.85]],"type":"LineString"},"id":43,"properties":{"corridor_time_h":13,"distance_km":137,"id_name":"Palm Passage - Abbot Point","pilot_cost":0,"total_consumption":1,"transit_arrival_time":"-1:00","type_specific":null,"wating_time":0},"type":"Feature"},{"geometry":{"coordinates":[[148.066667,-19.85],[148.107390640701,-19.5818122387595],[147.625521687817,-19.2191975796816],[146.870994305221,-18.7534254873668],[146.809462131779,-18.4816868010847],[147.063840130277,-18.2744015697232],[147.18253990633,-18.1964909707024]],"type":"LineString"},"id":44,"properties":{"corridor_time_h":13,"distance_km":137,"id_name":"Abbot Point - Palm Passage","pilot_cost":0,"total_consumption":1,"transit_arrival_time":"-1:00","type_specific":null,"wating_time":0},"type":"Feature"},{"geometry":{"coordinates":[[150.435146721603,-19.7216180015719],[150.326956703018,-19.852206228809],[150.29945301216,-19.9218147526046],[150.282746885614,-19.9747259290596],[150.27521092981,-20.0693156756108],[150.270288598951,-20.1560564440149],[150.354593386396,-20.4531632937812],[150.335702455245,-20.4996465628188],[150.292174264134,-20.5747240061388],[150.192197344003,-20.6308342606961],[149.916529271787,-20.7680185506498],[149.690028052187,-20.937053297133],[149.548444383414,-21.1354970709543],[149.502649003926,-21.2068987326603],[149.432666268354,-21.2440752149447]],"type":"LineString"},"id":45,"properties":{"corridor_time_h":12,"distance_km":120,"id_name":"Hydrographers Passage - Hay Point","pilot_cost":0,"total_consumption":1,"transit_arrival_time":"-1:00","type_specific":null,"wating_time":0},"type":"Feature"},{"geometry":{"coordinates":[[149.432666268354,-21.2440752149447],[149.502649003926,-21.2068987326603],[149.548444383414,-21.1354970709543],[149.690028052187,-20.937053297133],[149.916529271787,-20.7680185506498],[150.192197344003,-20.6308342606961],[150.292174264134,-20.5747240061388],[150.335702455245,-20.4996465628188],[150.354593386396,-20.4531632937812],[150.270288598951,-20.1560564440149],[150.27521092981,-20.0693156756108],[150.282746885614,-19.9747259290596],[150.29945301216,-19.9218147526046],[150.326956703018,-19.852206228809],[150.435146721603,-19.7216180015719]],"type":"LineString"},"id":46,"properties":{"corridor_time_h":12,"distance_km":120,"id_name":"Hay Point - Hydrographers Passage","pilot_cost":0,"total_consumption":1,"transit_arrival_time":"-1:00","type_specific":null,"wating_time":0},"type":"Feature"},{"geometry":{"coordinates":[[147.120462829029,-18.2622792580136],[147.064921904789,-18.3120009176027],[146.841197027421,-18.4508524184845],[146.72666099925,-18.6297891782676],[147.075756610916,-19.0392409095786],[147.487467574913,-19.2575405602063],[148.088421122363,-19.7530868392242],[148.70815446817,-20.0070723734777],[148.822277858191,-20.15764054007],[148.880061853138,-20.2999363457304],[149.014409641389,-20.5543868322088],[149.111197832926,-20.6192852955847],[149.18342782661,-20.6517241640977],[149.34088921284,-20.7422460159011],[149.351001411956,-21.021575198186],[149.240158855004,-21.0898522312585]],"type":"LineString"},"id":47,"properties":{"corridor_time_h":26,"distance_km":257,"id_name":"Palm Passage - Mackay","pilot_cost":0,"total_consumption":1,"transit_arrival_time":"-1:00","type_specific":null,"wating_time":0},"type":"Feature"},{"geometry":{"coordinates":[[149.240158855004,-21.0898522312585],[149.351001411956,-21.021575198186],[149.34088921284,-20.7422460159011],[149.18342782661,-20.6517241640977],[149.111197832926,-20.6192852955847],[149.014409641389,-20.5543868322088],[148.880061853138,-20.2999363457304],[148.822277858191,-20.15764054007],[148.70815446817,-20.0070723734777],[148.088421122363,-19.7530868392242],[147.487467574913,-19.2575405602063],[147.075756610916,-19.0392409095786],[146.72666099925,-18.6297891782676],[146.841197027421,-18.4508524184845],[147.064921904789,-18.3120009176027],[147.120462829029,-18.2622792580136]],"type":"LineString"},"id":48,"properties":{"corridor_time_h":26,"distance_km":257,"id_name":"Mackay - Palm Passage","pilot_cost":0,"total_consumption":1,"transit_arrival_time":"-1:00","type_specific":null,"wating_time":0},"type":"Feature"},{"geometry":{"coordinates":[[150.435146721603,-19.7216180015719],[150.326956703018,-19.852206228809],[150.29945301216,-19.9218147526046],[150.282746885614,-19.9747259290596],[150.27521092981,-20.0693156756108],[150.270288598951,-20.1560564440149],[150.354593386396,-20.4531632937812],[150.335702455245,-20.4996465628188],[150.292174264134,-20.5747240061388],[150.192197344003,-20.6308342606961],[149.916529271787,-20.7680185506498],[149.690028052187,-20.937053297133],[149.548444383414,-21.1354970709543],[149.306398550512,-21.11361200944]],"type":"LineString"},"id":49,"properties":{"corridor_time_h":12,"distance_km":123,"id_name":"Hydrographers Passage - Mackay","pilot_cost":0,"total_consumption":1,"transit_arrival_time":"-1:00","type_specific":null,"wating_time":0},"type":"Feature"},{"geometry":{"coordinates":[[149.306398550512,-21.11361200944],[149.548444383414,-21.1354970709543],[149.690028052187,-20.937053297133],[149.916529271787,-20.7680185506498],[150.192197344003,-20.6308342606961],[150.292174264134,-20.5747240061388],[150.335702455245,-20.4996465628188],[150.354593386396,-20.4531632937812],[150.270288598951,-20.1560564440149],[150.27521092981,-20.0693156756108],[150.282746885614,-19.9747259290596],[150.29945301216,-19.9218147526046],[150.326956703018,-19.852206228809],[150.435146721603,-19.7216180015719]],"type":"LineString"},"id":50,"properties":{"corridor_time_h":12,"distance_km":123,"id_name":"Mackay - Hydrographers Passage","pilot_cost":0,"total_consumption":1,"transit_arrival_time":"-1:00","type_specific":null,"wating_time":0},"type":"Feature"},{"geometry":{"coordinates":[[150.434611999599,-19.7207655059156],[150.328561176424,-19.8527762968448],[150.296442913437,-19.924617130711],[150.283421996009,-19.973308832688],[150.273648263584,-20.1003402858988],[150.272550306062,-20.160781255401],[150.355471072441,-20.4463791359723],[150.292391961348,-20.5767484308259],[150.113954068206,-20.6719862292918],[150.115329985765,-21.0363852946944],[150.062642607955,-21.1939863671745],[149.921044421835,-21.3924371660906],[150.105207758304,-21.6694805189303],[150.470097741274,-22.0385372990671],[150.738709608754,-22.3404238328029],[150.888883249989,-22.6821125858354],[151.095066899163,-23.1517033067992],[151.19095144438,-23.4081642842924],[151.24509800624,-23.4826813396305],[151.294223777099,-23.5298489478376],[151.36024308739,-23.7311878405657],[151.345725021095,-23.7487424435278]],"type":"LineString"},"id":51,"properties":{"corridor_time_h":28,"distance_km":278,"id_name":"Hydrographers Passage - Gladstone","pilot_cost":0,"total_consumption":1,"transit_arrival_time":"-1:00","type_specific":null,"wating_time":0},"type":"Feature"},{"geometry":{"coordinates":[[151.345725021095,-23.7487424435278],[151.36024308739,-23.7311878405657],[151.294223777099,-23.5298489478376],[151.24509800624,-23.4826813396305],[151.19095144438,-23.4081642842924],[151.095066899163,-23.1517033067992],[150.888883249989,-22.6821125858354],[150.738709608754,-22.3404238328029],[150.470097741274,-22.0385372990671],[150.105207758304,-21.6694805189303],[149.921044421835,-21.3924371660906],[150.062642607955,-21.1939863671745],[150.115329985765,-21.0363852946944],[150.113954068206,-20.6719862292918],[150.292391961348,-20.5767484308259],[150.355471072441,-20.4463791359723],[150.272550306062,-20.160781255401],[150.273648263584,-20.1003402858988],[150.283421996009,-19.973308832688],[150.296442913437,-19.924617130711],[150.328561176424,-19.8527762968448],[150.434611999599,-19.7207655059156]],"type":"LineString"},"id":52,"properties":{"corridor_time_h":28,"distance_km":278,"id_name":"Gladstone - Hydrographers Passage","pilot_cost":0,"total_consumption":1,"transit_arrival_time":"-1:00","type_specific":null,"wating_time":0},"type":"Feature"},{"geometry":{"coordinates":[[-94.70059,29.35321],[-94.40861,29.10731],[-94.30228,29.03052],[-93.51437,28.54793],[-93.03802,26.26191],[-91.88907,25.73625],[-84.06304,23.80493],[-81.42804,23.74098],[-79.52514,24.65164],[-79.2727,26.218],[-78.96226,26.25509],[-77.1724,25.61995],[-76.77049,25.70651]],"type":"LineString"},"id":57,"properties":{"corridor_time_h":98,"distance_km":1233,"id_name":"Bolivar Roads (HOUSTON) - NE Providence","pilot_cost":0,"total_consumption":1,"transit_arrival_time":"-1:00","type_specific":null,"wating_time":0},"type":"Feature"},{"geometry":{"coordinates":[[-93.34101,29.75498],[-93.3247,29.63434],[-93.22576,29.51233],[-93.19178,28.59688],[-92.61602,27.71397],[-91.80331,25.7644],[-84.06304,23.80493],[-81.42804,23.74098],[-79.52514,24.65164],[-79.2727,26.218],[-78.96226,26.25509],[-77.1724,25.61995],[-76.77049,25.70651]],"type":"LineString"},"id":58,"properties":{"corridor_time_h":99,"distance_km":1195,"id_name":"Calcasieu (LAKE CHARLES) - NE Providence","pilot_cost":0,"total_consumption":1,"transit_arrival_time":"-1:00","type_specific":null,"wating_time":0},"type":"Feature"},{"geometry":{"coordinates":[[-93.81258,29.67403],[-93.68085,29.45632],[-93.65214,29.08672],[-93.06066,26.18125],[-91.80331,25.7644],[-84.06304,23.80493],[-81.42804,23.74098],[-79.52514,24.65164],[-79.2727,26.218],[-78.96226,26.25509],[-77.1724,25.61995],[-76.77049,25.70651]],"type":"LineString"},"id":59,"properties":{"corridor_time_h":98,"distance_km":1225,"id_name":"Sabine Pass - NE Providence","pilot_cost":0,"total_consumption":1,"transit_arrival_time":"-1:00","type_specific":null,"wating_time":0},"type":"Feature"},{"geometry":{"coordinates":[[-89.44242,28.8618],[-89.4414,28.81057],[-89.28866,28.61681],[-87.56966,25.94006],[-86.56612,25.06635],[-84.06304,23.80493],[-81.42804,23.74098],[-79.52514,24.65164],[-79.2727,26.218],[-78.96226,26.25509],[-77.1724,25.61995],[-76.77049,25.70651]],"type":"LineString"},"id":60,"properties":{"corridor_time_h":75,"distance_km":934,"id_name":"Sw Pass - NE Providence","pilot_cost":0,"total_consumption":1,"transit_arrival_time":"-1:00","type_specific":null,"wating_time":0},"type":"Feature"},{"geometry":{"coordinates":[[42.42042151,13.92582246],[42.57428047,13.50961829],[42.705238,13.43255218],[43.11217772,13.03342624],[43.31058407,12.61806719],[43.41469001,12.55384869],[44.99183513,11.84523317],[53.26666667,14.43333333]],"type":"LineString"},"id":61,"properties":{"corridor_time_h":57,"distance_km":713,"id_name":"Corridor- Piracy- GOA- East bound","pilot_cost":0,"total_consumption":1,"transit_arrival_time":"-1:00","type_specific":null,"wating_time":0},"type":"Feature"},{"geometry":{"coordinates":[[53.26666667,14.43333333],[44.99183513,11.84523317],[43.41469001,12.55384869],[43.31058407,12.61806719],[43.11217772,13.03342624],[42.705238,13.43255218],[42.57428047,13.50961829],[42.42042151,13.92582246]],"type":"LineString"},"id":62,"properties":{"corridor_time_h":57,"distance_km":713,"id_name":"Corridor- Piracy- GOA- West bound","pilot_cost":0,"total_consumption":1,"transit_arrival_time":"-1:00","type_specific":null,"wating_time":0},"type":"Feature"}],"name":"feasibilityMaps/corridors_autoDownload.geojson","type":"FeatureCollection"}