{
"type": "FeatureCollection",
"name": "TSS_OptiNav_all_TSS_Path",
"crs": { "type": "name", "properties": { "name": "urn:ogc:def:crs:OGC:1.3:CRS84" } },
"features": [
{ "type": "Feature", "properties": { "begin": "AT BANCO DEL HOYO_TSS_East_Path_Point_01", "end": "AT BANCO DEL HOYO_TSS_East_Path_Point_02", "TSS or Avoid": "TSS", "layer": "TSS_OptiNav_AT BANCO DEL HOYO_TSS_East_Path", "path": "C:/Users/erago/Documents/AT BANCO DEL HOYO_TSS_East_Path.geojson|layername=AT BANCO DEL HOYO_TSS_East_Path" }, "geometry": { "type": "LineString", "coordinates": [ [ -6.198333333, 35.897313060325551 ], [ -6.098333333, 35.897313060325551 ] ] } },
{ "type": "Feature", "properties": { "begin": "AT BANCO DEL HOYO_TSS_West_Path_Point_01", "end": "AT BANCO DEL HOYO_TSS_West_Path_Point_02", "TSS or Avoid": "TSS", "layer": "TSS_OptiNav_AT BANCO DEL HOYO_TSS_West_Path", "path": "C:/Users/erago/Documents/AT BANCO DEL HOYO_TSS_West_Path.geojson|layername=AT BANCO DEL HOYO_TSS_West_Path" }, "geometry": { "type": "LineString", "coordinates": [ [ -6.098333333, 35.958186068047915 ], [ -6.198333333, 35.958186068047915 ] ] } },
{ "type": "Feature", "properties": { "begin": "North_Point_00_01", "end": "North_mid1", "TSS or Avoid": "TSS", "layer": "TSS_OptiNav_BALTIC SEA AND ADJACENT WATERS_TSS_North_Path", "path": "C:/Users/erago/Documents/BALTIC SEA AND ADJACENT WATERS_TSS_North_Path.geojson|layername=BALTIC SEA AND ADJACENT WATERS_TSS_North_Path" }, "geometry": { "type": "LineString", "coordinates": [ [ 11.999666485904509, 54.403763076193819 ], [ 12.100828567852151, 54.403754071903563 ], [ 12.160000000034078, 54.405836388647423 ], [ 12.235833332901878, 54.455000033011274 ], [ 12.273568134642318, 54.515592333826113 ], [ 12.27357378319889, 54.515591688259804 ], [ 12.300146733480672, 54.582568105978716 ], [ 12.743744647485977, 54.757752504401587 ], [ 13.089749999449753, 54.816919736326945 ], [ 13.226583333320175, 54.844086406264722 ], [13.65612,54.92659] ] } },
{ "type": "Feature", "properties": { "begin": "North_Point_00_01b", "end": "North_Point_36b", "TSS or Avoid": "TSS", "layer": "TSS_OptiNav_BALTIC SEA AND ADJACENT WATERS_TSS_North_PathB", "path": "C:/Users/erago/Documents/BALTIC SEA AND ADJACENT WATERS_TSS_North_Path.geojson|layername=BALTIC SEA AND ADJACENT WATERS_TSS_North_Path" }, "geometry": { "type": "LineString", "coordinates": [ [13.65612,54.92659], [ 14.060666666691029, 55.004422294505105 ], [ 14.13716666672979, 55.019504580902463 ], [ 14.229166667152157, 55.087169058306998 ], [ 14.364999999592399, 55.186669067141274 ], [ 14.646916666892638, 55.391004405480189 ], [ 15.423125000080775, 55.603594719729884 ], [ 17.554666667304588, 55.898757579126425 ], [ 17.715666667145442, 55.92109050754312 ], [ 18.690333333124794, 56.259173182825805 ], [ 18.83008333367852, 56.30725527918414 ], [ 18.912499999750388, 56.391168610326879 ], [ 19.835749999975956, 57.328465915648977 ], [ 20.399041666405218, 58.030773687100108 ], [ 21.667118043408642, 59.016269383277752 ], [ 21.780650730810798, 59.09378057021793 ], [ 21.9298865050819, 59.155693533423232 ], [ 22.473887884521009, 59.368119080828926 ], [ 22.613473184806448, 59.422366622405761 ], [ 22.792122321703161, 59.455149714844914 ], [ 24.312083333420471, 59.70908719776623 ], [ 24.374333332954418, 59.718420613120195 ], [ 24.501166666896079, 59.732670655851607 ], [ 25.127749999724401, 59.802670667463822 ], [ 25.192583332580753, 59.810004001642142 ], [ 25.672999999679178, 59.856004091266414 ], [ 25.775166667159901, 59.864420636050049 ], [ 25.873416666077993, 59.881003771022549 ], [ 26.506517870079001, 59.97237432009954 ], [ 26.671020445230063, 59.995126174047662 ], [ 26.73245510147278, 59.990363763732532 ], [ 26.951522923524625, 59.971142168302137 ], [ 27.056722318675885, 59.96322454733042 ], [ 27.119902052969337, 59.981312512658157 ], [ 27.558754136749709, 60.115090843227172 ], [ 27.741732194813476, 60.169596284864028 ], [ 27.810831422587377, 60.177754716848895 ], [ 28.26410434263428, 60.12061168901014 ] ] } },
{ "type": "Feature", "properties": { "begin": "South_Point_mid", "end": "South_Point_42", "TSS or Avoid": "TSS", "layer": "TSS_OptiNav_BALTIC SEA AND ADJACENT WATERS_TSS_South_Path", "path": "C:/Users/erago/Documents/BALTIC SEA AND ADJACENT WATERS_TSS_South_Path.geojson|layername=BALTIC SEA AND ADJACENT WATERS_TSS_South_Path" }, "geometry": { "type": "LineString", "coordinates": [ [ 13.061416666917204, 54.864253075225676 ], [ 12.711599642587139, 54.790023929400967 ], [ 12.248473301351931, 54.614272616352139 ], [ 12.196075453588396, 54.524579474678113 ], [ 12.17333333312267, 54.465250115568978 ], [ 12.10167143687114, 54.438750268814196 ], [ 11.999866991672555, 54.438748799985802 ] ] } },
{ "type": "Feature", "properties": { "begin": "South_Point_01b", "end": "South_Point_mid", "TSS or Avoid": "TSS", "layer": "TSS_OptiNav_BALTIC SEA AND ADJACENT WATERS_TSS_South_PathB", "path": "C:/Users/erago/Documents/BALTIC SEA AND ADJACENT WATERS_TSS_South_Path.geojson|layername=BALTIC SEA AND ADJACENT WATERS_TSS_South_Path" }, "geometry": { "type": "LineString", "coordinates": [ [ 28.272893173709846, 60.136651533241533 ], [ 27.819573318036817, 60.193770168261729 ], [ 27.716717542571022, 60.190825859942755 ], [ 27.53221418737564, 60.135763529878147 ], [ 27.094210943266795, 60.000011909105709 ], [ 27.047013610952764, 59.98837484585502 ], [ 26.959131464436581, 59.995718728199165 ], [ 26.739477477737978, 60.012976357680976 ], [ 26.580370371931213, 60.02471636866111 ], [ 26.498981836236016, 60.014150315540952 ], [ 25.841833332602924, 59.928337111772656 ], [ 25.751166666522451, 59.913087310908871 ], [ 25.656833333022934, 59.905420724899422 ], [ 25.165999999968363, 59.870253970271307 ], [ 25.101166667112008, 59.863004009885152 ], [ 24.582666666450056, 59.805170667218206 ], [ 22.718692252164114, 59.547150029071631 ], [ 22.51211292507482, 59.50790768943115 ], [ 22.356688771346597, 59.447551149569698 ], [ 21.816221774765307, 59.235723934376637 ], [ 21.638281031784505, 59.161656887047762 ], [ 21.516711739169494, 59.076020539549653 ], [ 20.383458333804267, 58.149690252606568 ], [ 19.742249999878688, 57.355715914804456 ], [ 18.809666666895343, 56.421835279210072 ], [ 18.746999999986517, 56.357255288730798 ], [ 18.625916666295851, 56.315006433373526 ], [ 17.680999999408268, 55.9812572922866 ], [ 17.530666667116289, 55.960257597132575 ], [ 15.270041666887623, 55.638094717912367 ], [ 14.584166666868175, 55.440004653309259 ], [ 14.284750000366378, 55.222669070387205 ], [ 14.149083333259123, 55.123169061463848 ], [ 14.0756666670333, 55.069004589204802 ], [ 14.027583333541042, 55.05958897268345 ], [ 13.198333333004951, 54.891419744827139 ], [ 13.061416666917204, 54.864253075225676 ] ] } },
{ "type": "Feature", "properties": { "begin": "BETWEEN GRAND CANARY AND FUERTEVENTURA_TSS_North_East_Path_Point_01", "end": "BETWEEN GRAND CANARY AND FUERTEVENTURA_TSS_North_East_Path_Point_04", "TSS or Avoid": "TSS", "layer": "TSS_OptiNav_BETWEEN GRAND CANARY AND FUERTEVENTURA_TSS_North_East_Path", "path": "C:/Users/erago/Documents/BETWEEN GRAND CANARY AND FUERTEVENTURA_TSS_North_East_Path.geojson|layername=BETWEEN GRAND CANARY AND FUERTEVENTURA_TSS_North_East_Path" }, "geometry": { "type": "LineString", "coordinates": [ [ -15.032583335, 27.824583335 ], [ -14.95525, 28.0125 ], [ -14.890583335, 28.169083335 ], [ -14.82425, 28.332 ] ] } },
{ "type": "Feature", "properties": { "begin": "BETWEEN GRAND CANARY AND FUERTEVENTURA_TSS_South_West_Path_Point_01", "end": "BETWEEN GRAND CANARY AND FUERTEVENTURA_TSS_South_West_Path_Point_04", "TSS or Avoid": "TSS", "layer": "TSS_OptiNav_BETWEEN GRAND CANARY AND FUERTEVENTURA_TSS_South_West_Path", "path": "C:/Users/erago/Documents/BETWEEN GRAND CANARY AND FUERTEVENTURA_TSS_South_West_Path.geojson|layername=BETWEEN GRAND CANARY AND FUERTEVENTURA_TSS_South_West_Path" }, "geometry": { "type": "LineString", "coordinates": [ [ -14.919333335, 28.33891667 ], [ -14.97825, 28.196416665 ], [ -15.042916665, 28.03975 ], [ -15.12033333, 27.85183333 ] ] } },
{ "type": "Feature", "properties": { "begin": "BETWEEN GRAND CANARY AND TENERIFE_TSS_North_East_Path_Point_01", "end": "BETWEEN GRAND CANARY AND TENERIFE_TSS_North_East_Path_Point_04", "TSS or Avoid": "TSS", "layer": "TSS_OptiNav_BETWEEN GRAND CANARY AND TENERIFE_TSS_North_East_Path", "path": "C:/Users/erago/Documents/BETWEEN GRAND CANARY AND TENERIFE_TSS_North_East_Path.geojson|layername=BETWEEN GRAND CANARY AND TENERIFE_TSS_North_East_Path" }, "geometry": { "type": "LineString", "coordinates": [ [ -16.237833335, 27.992416665 ], [ -15.995, 28.24775 ], [ -15.861166665, 28.38825 ], [ -15.681333335, 28.577083335 ] ] } },
{ "type": "Feature", "properties": { "begin": "BETWEEN GRAND CANARY AND TENERIFE_TSS_South_West_Path_Point_01", "end": "BETWEEN GRAND CANARY AND TENERIFE_TSS_South_West_Path_Point_04", "TSS or Avoid": "TSS", "layer": "TSS_OptiNav_BETWEEN GRAND CANARY AND TENERIFE_TSS_South_West_Path", "path": "C:/Users/erago/Documents/BETWEEN GRAND CANARY AND TENERIFE_TSS_South_West_Path.geojson|layername=BETWEEN GRAND CANARY AND TENERIFE_TSS_South_West_Path" }, "geometry": { "type": "LineString", "coordinates": [ [ -15.75416667, 28.6195 ], [ -15.926666665, 28.43866667 ], [ -16.060666665, 28.29825 ], [ -16.303666665, 28.042916665 ] ] } },
{ "type": "Feature", "properties": { "begin": "1", "end": "25", "TSS or Avoid": "TSS", "layer": "TSS_OptiNav_BETWEEN STRAITS OF BAB-EL-MANDEB AND SUEZ PILOT STATION_TSS_North_West_Path", "path": "C:/Users/erago/Documents/BETWEEN STRAITS OF BAB-EL-MANDEB AND SUEZ PILOT STATION_TSS_North_West_Path.geojson|layername=BETWEEN STRAITS OF BAB-EL-MANDEB AND SUEZ PILOT STATION_TSS_North_West_Path", "keepPrefPath":1 }, "geometry": { "type": "LineString", "coordinates": [ [ 45.49270331, 12.12643783 ], [ 45.01700591, 11.95678174 ], [ 43.56132296, 12.5260715 ], [ 43.3588801, 12.63883791 ], [ 43.21446298, 12.93552602 ], [ 43.00847774, 13.26266715 ], [ 42.75144399, 13.49184042 ], [ 42.65113814, 13.56934377 ], [ 42.61441903, 13.65987742 ], [ 42.06290561, 14.72512358 ], [ 35.77434691, 24.90855838 ], [ 34.89595707, 26.34119617 ], [ 34.14831714, 27.5213569 ], [ 33.85298931, 27.73336004 ], [ 33.75042547, 27.84925135 ], [ 33.63420739, 27.92949586 ], [ 33.35724424, 28.1693078 ], [ 33.33291084, 28.19284581 ], [ 33.29495625, 28.25665506 ], [ 33.07608515, 28.56860822 ], [ 32.89879141, 28.91885772 ], [ 32.80716157, 29.10935556 ], [ 32.61533565, 29.49097324 ], [ 32.56470897, 29.59518463 ], [ 32.5471272, 29.79606358 ] ] } },
{ "type": "Feature", "properties": { "begin": "1", "end": "19", "TSS or Avoid": "TSS", "layer": "TSS_OptiNav_BETWEEN SUEZ PILOT STATION AND STRAITS OF BAB AND EL-MANDEB_TSS_South_East_Path", "path": "C:/Users/erago/Documents/BETWEEN SUEZ PILOT STATION AND STRAITS OF BAB AND EL-MANDEB_TSS_South_East_Path.geojson|layername=BETWEEN SUEZ PILOT STATION AND STRAITS OF BAB AND EL-MANDEB_TSS_South_East_Path", "keepPrefPath":1 }, "geometry": { "type": "LineString", "coordinates": [ [ 32.52821469, 29.79795173 ], [ 32.51301696, 29.60610529 ], [ 32.58207344, 29.46515141 ], [ 32.78248214, 29.07348934 ], [ 32.89987193, 28.75778511 ], [ 33.2398793, 28.23026343 ], [ 33.33188751, 28.14729463 ], [ 33.61531512, 27.91856546 ], [ 33.71948534, 27.82880861 ], [ 34.07905767, 27.49437481 ], [ 41.78679381, 14.99785334 ], [ 42.5087391, 13.6563838 ], [ 42.57689669, 13.50461097 ], [ 42.69981337, 13.43322163 ], [ 43.01380431, 13.2064485 ], [ 43.11341925, 13.06460803 ], [ 43.32919031, 12.59387971 ], [ 45.01359511, 11.84690978 ], [ 45.52030572, 12.00684573 ] ] } },
{ "type": "Feature", "properties": { "begin": "IN THE BASS STRAIT_TSS_East_Path_Point_01", "end": "IN THE BASS STRAIT_TSS_East_Path_Point_03", "TSS or Avoid": "TSS", "layer": "TSS_OptiNav_IN THE BASS STRAIT_TSS_East_Path", "path": "C:/Users/erago/Documents/IN THE BASS STRAIT_TSS_East_Path.geojson|layername=IN THE BASS STRAIT_TSS_East_Path" }, "geometry": { "type": "LineString", "coordinates": [ [ 148.166975212893931, -38.804769356225748 ], [ 148.265308512893967, -38.774771011153334 ], [ 148.363183484221366, -38.720924952400487 ] ] } },
{ "type": "Feature", "properties": { "begin": "IN THE BASS STRAIT_TSS_West_Path_Point_01", "end": "IN THE BASS STRAIT_TSS_West_Path_Point_03", "TSS or Avoid": "TSS", "layer": "TSS_OptiNav_IN THE BASS STRAIT_TSS_West_Path", "path": "C:/Users/erago/Documents/IN THE BASS STRAIT_TSS_West_Path.geojson|layername=IN THE BASS STRAIT_TSS_West_Path" }, "geometry": { "type": "LineString", "coordinates": [ [ 148.310983215778606, -38.663241389622797 ], [ 148.231545017763608, -38.708759164942634 ], [ 148.133858137106074, -38.738563544366549 ] ] } },
{ "type": "Feature", "properties": { "begin": "IN THE FOURTH KURIL STRAIT_TSS_North_West_Path_Point_01", "end": "IN THE FOURTH KURIL STRAIT_TSS_North_West_Path_Point_02", "TSS or Avoid": "TSS", "layer": "TSS_OptiNav_IN THE FOURTH KURIL STRAIT_TSS_North_West_Path", "path": "C:/Users/erago/Documents/IN THE FOURTH KURIL STRAIT_TSS_North_West_Path.geojson|layername=IN THE FOURTH KURIL STRAIT_TSS_North_West_Path" }, "geometry": { "type": "LineString", "coordinates": [ [ 155.276861188986089, 49.765873634870481 ], [ 154.575194588986108, 50.095822188846611 ] ] } },
{ "type": "Feature", "properties": { "begin": "IN THE FOURTH KURIL STRAIT_TSS_South_East_Path_Point_01", "end": "IN THE FOURTH KURIL STRAIT_TSS_South_East_Path_Point_02", "TSS or Avoid": "TSS", "layer": "TSS_OptiNav_IN THE FOURTH KURIL STRAIT_TSS_South_East_Path", "path": "C:/Users/erago/Documents/IN THE FOURTH KURIL STRAIT_TSS_South_East_Path.geojson|layername=IN THE FOURTH KURIL STRAIT_TSS_South_East_Path" }, "geometry": { "type": "LineString", "coordinates": [ [ 154.526447271664779, 50.054182981533167 ], [ 155.228113971664783, 49.722464702400146 ] ] } },
{ "type": "Feature", "properties": { "begin": "IN THE NORTH CHANNEL_TSS_North_West_Path_Point_01", "end": "IN THE NORTH CHANNEL_TSS_North_West_Path_Point_03", "TSS or Avoid": "TSS", "layer": "TSS_OptiNav_IN THE NORTH CHANNEL_TSS_North_West_Path", "path": "C:/Users/erago/Documents/IN THE NORTH CHANNEL_TSS_North_West_Path.geojson|layername=IN THE NORTH CHANNEL_TSS_North_West_Path" }, "geometry": { "type": "LineString", "coordinates": [ [ -5.899623915700726, 55.264430769862102 ], [ -6.061933860662114, 55.392748098624509 ], [ -6.244243804623501, 55.416086692402089 ] ] } },
{ "type": "Feature", "properties": { "begin": "IN THE NORTH CHANNEL_TSS_South_East_Path_Point_01", "end": "IN THE NORTH CHANNEL_TSS_South_East_Path_Point_03", "TSS or Avoid": "TSS", "layer": "TSS_OptiNav_IN THE NORTH CHANNEL_TSS_South_East_Path", "path": "C:/Users/erago/Documents/IN THE NORTH CHANNEL_TSS_South_East_Path.geojson|layername=IN THE NORTH CHANNEL_TSS_South_East_Path" }, "geometry": { "type": "LineString", "coordinates": [ [ -6.255756195376496, 55.383906757759064 ], [ -6.093756565150325, 55.365207192816122 ], [ -5.947042750299275, 55.245566991579061 ] ] } },
{ "type": "Feature", "properties": { "begin": "IN THE OLD BAHAMA CHANNEL_TSS_North_West_Path_Point_01", "end": "IN THE OLD BAHAMA CHANNEL_TSS_North_West_Path_Point_04", "TSS or Avoid": "TSS", "layer": "TSS_OptiNav_IN THE OLD BAHAMA CHANNEL_TSS_North_West_Path", "path": "C:/Users/erago/Documents/TSS_OptiNav_IN THE OLD BAHAMA CHANNEL_TSS_North_West_Path.geojson|layername=TSS_OptiNav_IN THE OLD BAHAMA CHANNEL_TSS_North_West_Path", "keepPrefPath":1 }, "geometry": { "type": "LineString", "coordinates": [ [ -77.449608372128296, 22.165397201206495 ], [ -77.644608377128293, 22.332062423483105 ], [ -78.097345059219322, 22.605563557851433 ], [ -78.735205242885684, 22.823228635575504 ] ] } },
{ "type": "Feature", "properties": { "begin": "IN THE OLD BAHAMA CHANNEL_TSS_South_East_Path_Point_01", "end": "IN THE OLD BAHAMA CHANNEL_TSS_South_East_Path_Point_04", "TSS or Avoid": "TSS", "layer": "TSS_OptiNav_IN THE OLD BAHAMA CHANNEL_TSS_South_East_Path", "path": "C:/Users/erago/Documents/TSS_OptiNav_IN THE OLD BAHAMA CHANNEL_TSS_South_East_Path.geojson|layername=TSS_OptiNav_IN THE OLD BAHAMA CHANNEL_TSS_South_East_Path", "keepPrefPath":1 }, "geometry": { "type": "LineString", "coordinates": [ [ -78.767294757114314, 22.79093799861284 ], [ -78.118318375740785, 22.568500613011899 ], [ -77.671114294322052, 22.299509833176835 ], [ -77.479558287871711, 22.134602777276687 ] ] } },
{ "type": "Feature", "properties": { "begin": "IN THE STRAIT OF GIBRALTAR_TSS_East_Path_Point_01", "end": "IN THE STRAIT OF GIBRALTAR_TSS_East_Path_Point_05", "TSS or Avoid": "TSS", "layer": "TSS_OptiNav_IN THE STRAIT OF GIBRALTAR_TSS_East_Path", "path": "C:/Users/erago/Documents/IN THE STRAIT OF GIBRALTAR_TSS_East_Path.geojson|layername=IN THE STRAIT OF GIBRALTAR_TSS_East_Path" }, "geometry": { "type": "LineString", "coordinates": [ [ -5.749666667, 35.904536809635239 ], [ -5.607455388445123, 35.915438168269418 ], [ -5.543872054945123, 35.932355094236996 ], [ -5.462699219882552, 35.954523728746381 ], [ -5.31387500025, 35.99641667 ] ] } },
{ "type": "Feature", "properties": { "begin": "IN THE STRAIT OF GIBRALTAR_TSS_West_Path_Point_01", "end": "IN THE STRAIT OF GIBRALTAR_TSS_West_Path_Point_05", "TSS or Avoid": "TSS", "layer": "TSS_OptiNav_IN THE STRAIT OF GIBRALTAR_TSS_West_Path", "path": "C:/Users/erago/Documents/IN THE STRAIT OF GIBRALTAR_TSS_West_Path.geojson|layername=IN THE STRAIT OF GIBRALTAR_TSS_West_Path" }, "geometry": { "type": "LineString", "coordinates": [ [ -5.32329166675, 36.02991667 ], [ -5.476967446617449, 35.990642892096901 ], [ -5.558461278054876, 35.969311521506128 ], [ -5.608278786523952, 35.956629801196264 ], [ -5.749666667, 35.956629801196264 ] ] } },
{ "type": "Feature", "properties": { "begin": "OFF CABO DE GATA_TSS_East_Path_Point_01", "end": "OFF CABO DE GATA_TSS_East_Path_Point_02", "TSS or Avoid": "TSS", "layer": "TSS_OptiNav_OFF CABO DE GATA_TSS_East_Path", "path": "C:/Users/erago/Documents/OFF CABO DE GATA_TSS_East_Path.geojson|layername=OFF CABO DE GATA_TSS_East_Path" }, "geometry": { "type": "LineString", "coordinates": [ [ -2.274666667, 36.35675 ], [ -2.1506666665, 36.382583335 ] ] } },
{ "type": "Feature", "properties": { "begin": "OFF CABO DE GATA_TSS_West_Path_Point_01", "end": "OFF CABO DE GATA_TSS_West_Path_Point_03", "TSS or Avoid": "TSS", "layer": "TSS_OptiNav_OFF CABO DE GATA_TSS_West_Path", "path": "C:/Users/erago/Documents/OFF CABO DE GATA_TSS_West_Path.geojson|layername=OFF CABO DE GATA_TSS_West_Path" }, "geometry": { "type": "LineString", "coordinates": [ [ -2.1585, 36.44858333 ], [ -2.191166667, 36.426333335 ], [ -2.2599166665, 36.421583335 ] ] } },
{ "type": "Feature", "properties": { "begin": "OFF CABO SAN ANTONIO_TSS_North_Path_Point_01", "end": "OFF CABO SAN ANTONIO_TSS_North_Path_Point_02", "TSS or Avoid": "TSS", "layer": "TSS_OptiNav_OFF CABO SAN ANTONIO_TSS_North_Path", "path": "C:/Users/erago/Documents/TSS_OptiNav_OFF CABO SAN ANTONIO_TSS_North_Path.geojson|layername=TSS_OptiNav_OFF CABO SAN ANTONIO_TSS_North_Path", "keepPrefPath":1 }, "geometry": { "type": "LineString", "coordinates": [ [ -85.077771508436967, 21.740833335 ], [ -85.077771508436967, 22.01666667 ] ] } },
{ "type": "Feature", "properties": { "begin": "OFF CABO SAN ANTONIO_TSS_South_Path_Point_01", "end": "OFF CABO SAN ANTONIO_TSS_South_Path_Point_02", "TSS or Avoid": "TSS", "layer": "TSS_OptiNav_OFF CABO SAN ANTONIO_TSS_South_Path", "path": "C:/Users/erago/Documents/TSS_OptiNav_OFF CABO SAN ANTONIO_TSS_South_Path.geojson|layername=TSS_OptiNav_OFF CABO SAN ANTONIO_TSS_South_Path", "keepPrefPath":1 }, "geometry": { "type": "LineString", "coordinates": [ [ -85.163061826563037, 22.01666667 ], [ -85.163061826563037, 21.72166667 ] ] } },
{ "type": "Feature", "properties": { "begin": "OFF CANI ISLAND_TSS_East_Path_Point_01", "end": "OFF CANI ISLAND_TSS_East_Path_Point_02", "TSS or Avoid": "TSS", "layer": "TSS_OptiNav_OFF CANI ISLAND_TSS_East_Path", "path": "C:/Users/erago/Documents/OFF CANI ISLAND_TSS_East_Path.geojson|layername=OFF CANI ISLAND_TSS_East_Path" }, "geometry": { "type": "LineString", "coordinates": [ [ 9.904066667, 37.56516667 ], [ 10.22266667, 37.56516667 ] ] } },
{ "type": "Feature", "properties": { "begin": "OFF CANI ISLAND_TSS_West_Path_Point_01", "end": "OFF CANI ISLAND_TSS_West_Path_Point_02", "TSS or Avoid": "TSS", "layer": "TSS_OptiNav_OFF CANI ISLAND_TSS_West_Path", "path": "C:/Users/erago/Documents/OFF CANI ISLAND_TSS_West_Path.geojson|layername=OFF CANI ISLAND_TSS_West_Path" }, "geometry": { "type": "LineString", "coordinates": [ [ 10.22266667, 37.6485 ], [ 10.04066667, 37.6485 ] ] } },
{ "type": "Feature", "properties": { "begin": "OFF CAPE BON_TSS_East_Path_Point_01", "end": "OFF CAPE BON_TSS_East_Path_Point_02", "TSS or Avoid": "TSS", "layer": "TSS_OptiNav_OFF CAPE BON_TSS_East_Path", "path": "C:/Users/erago/Documents/OFF CAPE BON_TSS_East_Path.geojson|layername=OFF CAPE BON_TSS_East_Path" }, "geometry": { "type": "LineString", "coordinates": [ [ 11.1345, 37.387166665 ], [ 11.288916665, 37.31616667 ] ] } },
{ "type": "Feature", "properties": { "begin": "OFF CAPE BON_TSS_West_Path_Point_01", "end": "OFF CAPE BON_TSS_West_Path_Point_02", "TSS or Avoid": "TSS", "layer": "TSS_OptiNav_OFF CAPE BON_TSS_West_Path", "path": "C:/Users/erago/Documents/OFF CAPE BON_TSS_West_Path.geojson|layername=OFF CAPE BON_TSS_West_Path" }, "geometry": { "type": "LineString", "coordinates": [ [ 11.340416665, 37.3885 ], [ 11.186833335, 37.45991667 ] ] } },
{ "type": "Feature", "properties": { "begin": "OFF CAPE LA NAO_TSS_East_Path_Point_01", "end": "OFF CAPE LA NAO_TSS_East_Path_Point_02", "TSS or Avoid": "TSS", "layer": "TSS_OptiNav_OFF CAPE LA NAO_TSS_East_Path", "path": "C:/Users/erago/Documents/OFF CAPE LA NAO_TSS_East_Path.geojson|layername=OFF CAPE LA NAO_TSS_East_Path" }, "geometry": { "type": "LineString", "coordinates": [ [ 0.4091666665, 38.63 ], [ 0.4633333335, 38.696666665 ] ] } },
{ "type": "Feature", "properties": { "begin": "OFF CAPE LA NAO_TSS_West_Path_Point_01", "end": "OFF CAPE LA NAO_TSS_West_Path_Point_02", "TSS or Avoid": "TSS", "layer": "TSS_OptiNav_OFF CAPE LA NAO_TSS_West_Path", "path": "C:/Users/erago/Documents/OFF CAPE LA NAO_TSS_West_Path.geojson|layername=OFF CAPE LA NAO_TSS_West_Path" }, "geometry": { "type": "LineString", "coordinates": [ [ 0.396666667, 38.725 ], [ 0.2841666665, 38.63166667 ] ] } },
{ "type": "Feature", "properties": { "begin": "OFF CAPE PALOS_TSS_East_Path_Point_01", "end": "OFF CAPE PALOS_TSS_East_Path_Point_03", "TSS or Avoid": "TSS", "layer": "TSS_OptiNav_OFF CAPE PALOS_TSS_East_Path", "path": "C:/Users/erago/Documents/OFF CAPE PALOS_TSS_East_Path.geojson|layername=OFF CAPE PALOS_TSS_East_Path" }, "geometry": { "type": "LineString", "coordinates": [ [ -0.548333333, 37.526666665 ], [ -0.5116666665, 37.55 ], [ -0.4916666665, 37.57625 ] ] } },
{ "type": "Feature", "properties": { "begin": "OFF CAPE PALOS_TSS_West_Path_Point_01", "end": "OFF CAPE PALOS_TSS_West_Path_Point_03", "TSS or Avoid": "TSS", "layer": "TSS_OptiNav_OFF CAPE PALOS_TSS_West_Path", "path": "C:/Users/erago/Documents/OFF CAPE PALOS_TSS_West_Path.geojson|layername=OFF CAPE PALOS_TSS_West_Path" }, "geometry": { "type": "LineString", "coordinates": [ [ -0.54, 37.590833335 ], [ -0.55, 37.57833333 ], [ -0.58625, 37.554583335 ] ] } },
{ "type": "Feature", "properties": { "begin": "OFF CAPE ROCA_TSS_North_Path_Point_01", "end": "OFF CAPE ROCA_TSS_North_Path_Point_03", "TSS or Avoid": "TSS", "layer": "TSS_OptiNav_OFF CAPE ROCA_TSS_North_Path", "path": "C:/Users/erago/Documents/OFF CAPE ROCA_TSS_North_Path.geojson|layername=OFF CAPE ROCA_TSS_North_Path" }, "geometry": { "type": "LineString", "coordinates": [ [ -9.832333333, 38.631916665 ], [ -9.857583333499999, 38.717083335 ], [ -9.857583333499999, 38.86516667 ] ] } },
{ "type": "Feature", "properties": { "begin": "OFF CAPE ROCA_TSS_South_Path_Point_01", "end": "OFF CAPE ROCA_TSS_South_Path_Point_03", "TSS or Avoid": "TSS", "layer": "TSS_OptiNav_OFF CAPE ROCA_TSS_South_Path", "path": "C:/Users/erago/Documents/OFF CAPE ROCA_TSS_South_Path.geojson|layername=OFF CAPE ROCA_TSS_South_Path" }, "geometry": { "type": "LineString", "coordinates": [ [ -10.10591667, 38.86516667 ], [ -10.10591667, 38.694 ], [ -10.074333335, 38.587416665 ] ] } },
{ "type": "Feature", "properties": { "begin": "OFF CAPE S. VICENTE_TSS_North_West_Path_Point_01", "end": "OFF CAPE S. VICENTE_TSS_North_West_Path_Point_04", "TSS or Avoid": "TSS", "layer": "TSS_OptiNav_OFF CAPE S. VICENTE_TSS_North_West_Path", "path": "C:/Users/erago/Documents/OFF CAPE S. VICENTE_TSS_North_West_Path.geojson|layername=OFF CAPE S" }, "geometry": { "type": "LineString", "coordinates": [ [ -8.998916666500001, 36.707083335 ], [ -9.15775, 36.74283333 ], [ -9.321083333499999, 36.883666665 ], [ -9.358083333500002, 37.01166667 ] ] } },
{ "type": "Feature", "properties": { "begin": "OFF CAPE S. VICENTE_TSS_South_East_Path_Point_01", "end": "OFF CAPE S. VICENTE_TSS_South_East_Path_Point_04", "TSS or Avoid": "TSS", "layer": "TSS_OptiNav_OFF CAPE S. VICENTE_TSS_South_East_Path", "path": "C:/Users/erago/Documents/OFF CAPE S. VICENTE_TSS_South_East_Path.geojson|layername=OFF CAPE S" }, "geometry": { "type": "LineString", "coordinates": [ [ -9.600416666499999, 36.966416665 ], [ -9.5484166665, 36.7865 ], [ -9.292083333499999, 36.565083335 ], [ -9.065833333, 36.514 ] ] } },
{ "type": "Feature", "properties": { "begin": "OFF CASQUETS_TSS_East_Point_01", "end": "OFF CASQUETS_TSS_East_Point_02", "TSS or Avoid": "TSS", "layer": "TSS_OptiNav_OFF CASQUETS_TSS_East_Path", "path": "C:/Users/erago/Documents/TSS_OptiNav_OFF CASQUETS_TSS_East_Path.geojson|layername=TSS_OptiNav_OFF CASQUETS_TSS_East_Path" }, "geometry": { "type": "LineString", "coordinates": [ [ -2.863538108620586, 49.835615397772436 ], [ -2.376704775120586, 49.918964397296975 ] ] } },
{ "type": "Feature", "properties": { "begin": "OFF CASQUETS_TSS_West_Point_01", "end": "OFF CASQUETS_TSS_West_Point_02", "TSS or Avoid": "TSS", "layer": "TSS_OptiNav_OFF CASQUETS_TSS_West_Path", "path": "C:/Users/erago/Documents/TSS_OptiNav_OFF CASQUETS_TSS_West_Path.geojson|layername=TSS_OptiNav_OFF CASQUETS_TSS_West_Path" }, "geometry": { "type": "LineString", "coordinates": [ [ -2.437925377651525, 50.067196056886921 ], [ -2.925008711151525, 49.983457077666955 ] ] } },
{ "type": "Feature", "properties": { "begin": "OFF DONDRA HEAD_TSS_East_Path_Point_01", "end": "OFF DONDRA HEAD_TSS_East_Path_Point_02", "TSS or Avoid": "TSS", "layer": "TSS_OptiNav_OFF DONDRA HEAD_TSS_East_Path", "path": "C:/Users/erago/Documents/OFF DONDRA HEAD_TSS_East_Path.geojson|layername=OFF DONDRA HEAD_TSS_East_Path" }, "geometry": { "type": "LineString", "coordinates": [ [ 80.539666669999988, 5.712236783038798 ], [ 80.642333329999985, 5.712236783038798 ] ] } },
{ "type": "Feature", "properties": { "begin": "OFF DONDRA HEAD_TSS_West_Path_Point_01", "end": "OFF DONDRA HEAD_TSS_West_Path_Point_02", "TSS or Avoid": "TSS", "layer": "TSS_OptiNav_OFF DONDRA HEAD_TSS_West_Path", "path": "C:/Users/erago/Documents/OFF DONDRA HEAD_TSS_West_Path.geojson|layername=OFF DONDRA HEAD_TSS_West_Path" }, "geometry": { "type": "LineString", "coordinates": [ [ 80.642333329999985, 5.811097548597703 ], [ 80.539666669999988, 5.811097548597703 ] ] } },
{ "type": "Feature", "properties": { "begin": "OFF FASTNET ROCK_TSS_East_Path_Pont_01", "end": "OFF FASTNET ROCK_TSS_East_Path_Pont_02", "TSS or Avoid": "TSS", "layer": "TSS_OptiNav_OFF FASTNET ROCK_TSS_East Path", "path": "C:/Users/erago/Documents/OFF FASTNET ROCK_TSS_East Path.geojson|layername=OFF FASTNET ROCK_TSS_East Path" }, "geometry": { "type": "LineString", "coordinates": [ [ -9.57268422370802, 51.274788260105396 ], [ -9.41601755670802, 51.304806916574165 ] ] } },
{ "type": "Feature", "properties": { "begin": "OFF FASTNET ROCK_TSS_West_Path_Pont_01", "end": "OFF FASTNET ROCK_TSS_West_Path_Pont_02", "TSS or Avoid": "TSS", "layer": "TSS_OptiNav_OFF FASTNET ROCK_TSS_West Path", "path": "C:/Users/erago/Documents/OFF FASTNET ROCK_TSS_West Path.geojson|layername=OFF FASTNET ROCK_TSS_West Path" }, "geometry": { "type": "LineString", "coordinates": [ [ -9.444617550989832, 51.361817739386851 ], [ -9.600450884489831, 51.331820564225843 ] ] } },
{ "type": "Feature", "properties": { "begin": "OFF FINISTERRE_TSS_North_East_Path_Point_01", "end": "OFF FINISTERRE_TSS_North_East_Path_Point_03", "TSS or Avoid": "TSS", "layer": "TSS_OptiNav_OFF FINISTERRE_TSS_North_East_Path", "path": "C:/Users/erago/Documents/OFF FINISTERRE_TSS_North_East_Path.geojson|layername=OFF FINISTERRE_TSS_North_East_Path" }, "geometry": { "type": "LineString", "coordinates": [ [ -9.788333333, 42.88166667 ], [ -9.788333333, 43.19333333 ], [ -9.663333333, 43.37083333 ] ] } },
{ "type": "Feature", "properties": { "begin": "OFF FINISTERRE_TSS_South_West_Path_Point_01", "end": "OFF FINISTERRE_TSS_South_West_Path_Point_03", "TSS or Avoid": "TSS", "layer": "TSS_OptiNav_OFF FINISTERRE_TSS_South_West_Path", "path": "C:/Users/erago/Documents/OFF FINISTERRE_TSS_South_West_Path.geojson|layername=OFF FINISTERRE_TSS_South_West_Path" }, "geometry": { "type": "LineString", "coordinates": [ [ -9.9666666665, 43.479166665 ], [ -10.10458333, 43.282083335 ], [ -10.10458333, 42.88166667 ] ] } },
{ "type": "Feature", "properties": { "begin": "OFF LA TABLA_TSS_North_East_Path_Point_01", "end": "OFF LA TABLA_TSS_North_East_Path_Point_02", "TSS or Avoid": "TSS", "layer": "TSS_OptiNav_OFF LA TABLA_TSS_North_East_Path", "path": "C:/Users/erago/Documents/TSS_OptiNav_OFF LA TABLA_TSS_North_East_Path.geojson|layername=TSS_OptiNav_OFF LA TABLA_TSS_North_East_Path", "keepPrefPath":1 }, "geometry": { "type": "LineString", "coordinates": [ [ -84.811452689572434, 22.311958735600946 ], [ -84.683119354572455, 22.450294239684723 ] ] } },
{ "type": "Feature", "properties": { "begin": "OFF LA TABLA_TSS_South_West_Path_Point_01", "end": "OFF LA TABLA_TSS_South_West_Path_Point_02", "TSS or Avoid": "TSS", "layer": "TSS_OptiNav_OFF LA TABLA_TSS_South_West_Path", "path": "C:/Users/erago/Documents/TSS_OptiNav_OFF LA TABLA_TSS_South_West_Path.geojson|layername=TSS_OptiNav_OFF LA TABLA_TSS_South_West_Path", "keepPrefPath":1 }, "geometry": { "type": "LineString", "coordinates": [ [ -84.721880650427551, 22.483039025091585 ], [ -84.851047315427536, 22.344707859511985 ] ] } },
{ "type": "Feature", "properties": { "begin": "OFF LAND’S END, BETWEEN SEVEN STONES AND LONGSHIPS_TSS_North_Point_01", "end": "OFF LAND’S END, BETWEEN SEVEN STONES AND LONGSHIPS_TSS_North_Point_02", "TSS or Avoid": "TSS", "layer": "TSS_OptiNav_OFF LAND’S END, BETWEEN SEVEN STONES AND LONGSHIPS_TSS_North_Path", "path": "C:/Users/erago/Documents/TSS_OptiNav_OFF LAND’S END, BETWEEN SEVEN STONES AND LONGSHIPS_TSS_North_Path.geojson|layername=TSS_OptiNav_OFF LAND’S END, BETWEEN SEVEN STONES AND LONGSHIPS_TSS_North_Path" }, "geometry": { "type": "LineString", "coordinates": [ [ -5.890583333, 49.985333335 ], [ -5.890583333, 50.33383333 ] ] } },
{ "type": "Feature", "properties": { "begin": "OFF LAND’S END, BETWEEN SEVEN STONES AND LONGSHIPS_TSS_South_Point_01", "end": "OFF LAND’S END, BETWEEN SEVEN STONES AND LONGSHIPS_TSS_South_Point_02", "TSS or Avoid": "TSS", "layer": "TSS_OptiNav_OFF LAND’S END, BETWEEN SEVEN STONES AND LONGSHIPS_TSS_South_Path", "path": "C:/Users/erago/Documents/TSS_OptiNav_OFF LAND’S END, BETWEEN SEVEN STONES AND LONGSHIPS_TSS_South_Path.geojson|layername=TSS_OptiNav_OFF LAND’S END, BETWEEN SEVEN STONES AND LONGSHIPS_TSS_South_Path" }, "geometry": { "type": "LineString", "coordinates": [ [ -6.020333333, 50.33383333 ], [ -6.020333333, 49.923416665 ] ] } },
{ "type": "Feature", "properties": { "begin": "OFF NEIST POINT IN THE MINCHES_TSS_North_Path_Point_01", "end": "OFF NEIST POINT IN THE MINCHES_TSS_North_Path_Point_03", "TSS or Avoid": "TSS", "layer": "TSS_OptiNav_OFF NEIST POINT IN THE MINCHES_TSS_North_Path", "path": "C:/Users/erago/Documents/OFF NEIST POINT IN THE MINCHES_TSS_North_Path.geojson|layername=OFF NEIST POINT IN THE MINCHES_TSS_North_Path" }, "geometry": { "type": "LineString", "coordinates": [ [ -6.86575, 57.396 ], [ -6.8586666665, 57.432833335 ], [ -6.8356666665, 57.462166665 ] ] } },
{ "type": "Feature", "properties": { "begin": "OFF NEIST POINT IN THE MINCHES_TSS_South_Path_Point_01", "end": "OFF NEIST POINT IN THE MINCHES_TSS_South_Path_Point_03", "TSS or Avoid": "TSS", "layer": "TSS_OptiNav_OFF NEIST POINT IN THE MINCHES_TSS_South Path", "path": "C:/Users/erago/Documents/OFF NEIST POINT IN THE MINCHES_TSS_South Path.geojson|layername=OFF NEIST POINT IN THE MINCHES_TSS_South Path" }, "geometry": { "type": "LineString", "coordinates": [ [ -6.904, 57.47775 ], [ -6.9313333335, 57.442916665 ], [ -6.9395, 57.40008333 ] ] } },
{ "type": "Feature", "properties": { "begin": "OFF SKERRIES_TSS_East_Path_Point_01", "end": "OFF SKERRIES_TSS_East_Path_Point_03", "TSS or Avoid": "TSS", "layer": "TSS_OptiNav_OFF SKERRIES_TSS_East_Path", "path": "C:/Users/erago/Documents/OFF SKERRIES_TSS_East_Path.geojson|layername=OFF SKERRIES_TSS_East_Path" }, "geometry": { "type": "LineString", "coordinates": [ [ -4.843220015037944, 53.369906192662633 ], [ -4.67883919354995, 53.505602055157112 ], [ -4.522847601080646, 53.517962649784323 ] ] } },
{ "type": "Feature", "properties": { "begin": "OFF SKERRIES_TSS_West_Path_Point_01", "end": "OFF SKERRIES_TSS_West_Path_Point_03", "TSS or Avoid": "TSS", "layer": "TSS_OptiNav_OFF SKERRIES_TSS_West_Path", "path": "C:/Users/erago/Documents/OFF SKERRIES_TSS_West_Path.geojson|layername=OFF SKERRIES_TSS_West_Path" }, "geometry": { "type": "LineString", "coordinates": [ [ -4.530485732919352, 53.552030497656112 ], [ -4.709706980452279, 53.536280819713141 ], [ -4.890113318962054, 53.390091415263981 ] ] } },
{ "type": "Feature", "properties": { "begin": "OFF USHANT_TSS_1st_Nearest_Ushant_North_East_Point_01", "end": "OFF USHANT_TSS_1st_Nearest_Ushant_North_East_Point_02", "TSS or Avoid": "TSS", "layer": "TSS_OptiNav_OFF USHANT_TSS_1st_Nearest_Ushant_North_East_Path", "path": "C:/Users/erago/Documents/TSS_OptiNav_OFF USHANT_TSS_1st_Nearest_Ushant_North_East_Path.geojson|layername=TSS_OptiNav_OFF USHANT_TSS_1st_Nearest_Ushant_North_East_Path" }, "geometry": { "type": "LineString", "coordinates": [ [ -5.4033333335, 48.500000002500002 ], [ -5.2225, 48.640416665 ] ] } },
{ "type": "Feature", "properties": { "begin": "OFF USHANT_TSS_1st_Nearest_Ushant_South_West_Point_01", "end": "OFF USHANT_TSS_1st_Nearest_Ushant_South_West_Point_02", "TSS or Avoid": "TSS", "layer": "TSS_OptiNav_OFF USHANT_TSS_1st_Nearest_Ushant_South_West_Path", "path": "C:/Users/erago/Documents/TSS_OptiNav_OFF USHANT_TSS_1st_Nearest_Ushant_South_West_Path.geojson|layername=TSS_OptiNav_OFF USHANT_TSS_1st_Nearest_Ushant_South_West_Path" }, "geometry": { "type": "LineString", "coordinates": [ [ -5.2375, 48.654583335 ], [ -5.4266666665, 48.506666667500006 ] ] } },
{ "type": "Feature", "properties": { "begin": "OFF USHANT_TSS_2nd_Nearest_Ushant_Entering_English_Channel_Poin_01", "end": "OFF USHANT_TSS_2nd_Nearest_Ushant_Entering_English_Channel_Poin_03", "TSS or Avoid": "TSS", "layer": "TSS_OptiNav_OFF USHANT_TSS_2nd_Nearest_Ushant_Entering_English_Channel_Path", "path": "C:/Users/erago/Documents/TSS_OptiNav_OFF USHANT_TSS_2nd_Nearest_Ushant_Entering_English_Channel_Path.geojson|layername=TSS_OptiNav_OFF USHANT_TSS_2nd_Nearest_Ushant_Entering_English_Channel_Path" }, "geometry": { "type": "LineString", "coordinates": [ [ -5.7575, 48.604166665 ], [ -5.615833333499999, 48.78 ], [ -5.4475, 48.844583334999989 ] ] } },
{ "type": "Feature", "properties": { "begin": "OFF USHANT_TSS_3rd_Nearest_Ushant_Leaving_English_Channel_Point_01", "end": "OFF USHANT_TSS_3rd_Nearest_Ushant_Leaving_English_Channel_Point_03", "TSS or Avoid": "TSS", "layer": "TSS_OptiNav_OFF USHANT_TSS_3rd_Nearest_Ushant_Leaving_English_Channel_Path", "path": "C:/Users/erago/Documents/TSS_OptiNav_OFF USHANT_TSS_3rd_Nearest_Ushant_Leaving_English_Channel_Path.geojson|layername=TSS_OptiNav_OFF USHANT_TSS_3rd_Nearest_Ushant_Leaving_English_Channel_Path" }, "geometry": { "type": "LineString", "coordinates": [ [ -5.57125, 48.984166665 ], [ -5.7966666665, 48.897083335 ], [ -5.973333333499999, 48.680833335 ] ] } },
{ "type": "Feature", "properties": { "begin": "OFF_SMALLS_TSS_North_Path_Point_01", "end": "OFF_SMALLS_TSS_North_Path_Point_02", "TSS or Avoid": "TSS", "layer": "TSS_OptiNav_OFF_SMALLS_TSS_North Path", "path": "C:/Users/erago/Documents/OFF_SMALLS_TSS_North Path.geojson|layername=OFF_SMALLS_TSS_North Path" }, "geometry": { "type": "LineString", "coordinates": [ [ -5.848333333499999, 51.66666667 ], [ -5.7666666665, 51.843333335 ] ] } },
{ "type": "Feature", "properties": { "begin": "OFF_SMALLS_TSS_South_Path_Point_01", "end": "OFF_SMALLS_TSS_South_Path_Point_02", "TSS or Avoid": "TSS", "layer": "TSS_OptiNav_OFF_SMALLS_TSS_South_Path", "path": "C:/Users/erago/Documents/OFF_SMALLS_TSS_South_Path.geojson|layername=OFF_SMALLS_TSS_South_Path" }, "geometry": { "type": "LineString", "coordinates": [ [ -5.8983333335, 51.866666665 ], [ -5.99, 51.66666667 ] ] } },
{ "type": "Feature", "properties": { "begin": "SOUTH OF THE SCILLY ISLES_TSS_East_Point_01", "end": "SOUTH OF THE SCILLY ISLES_TSS_East_Point_02", "TSS or Avoid": "TSS", "layer": "TSS_OptiNav_SOUTH OF THE SCILLY ISLES_TSS_East_Path", "path": "C:/Users/erago/Documents/TSS_OptiNav_SOUTH OF THE SCILLY ISLES_TSS_East_Path.geojson|layername=TSS_OptiNav_SOUTH OF THE SCILLY ISLES_TSS_East_Path" }, "geometry": { "type": "LineString", "coordinates": [ [ -6.550416667, 49.63333333 ], [ -6.275, 49.63333333 ] ] } },
{ "type": "Feature", "properties": { "begin": "SOUTH OF THE SCILLY ISLES_TSS_West_Point_01", "end": "SOUTH OF THE SCILLY ISLES_TSS_West_Point_02", "TSS or Avoid": "TSS", "layer": "TSS_OptiNav_SOUTH OF THE SCILLY ISLES_TSS_West_Path", "path": "C:/Users/erago/Documents/TSS_OptiNav_SOUTH OF THE SCILLY ISLES_TSS_West_Path.geojson|layername=TSS_OptiNav_SOUTH OF THE SCILLY ISLES_TSS_West_Path" }, "geometry": { "type": "LineString", "coordinates": [ [ -6.275, 49.71666667 ], [ -6.51375, 49.71666667 ] ] } },
{ "type": "Feature", "properties": { "begin": "SOUTH OF WILSON PROMONTORY IN THE BASS STRAIT_TSS_East_Path_Point_01", "end": "SOUTH OF WILSON PROMONTORY IN THE BASS STRAIT_TSS_East_Path_Point_04", "keepPrefPath":1 }, "geometry": { "type": "LineString", "coordinates": [ [ 146.066666700000013, -39.26666667 ], [ 146.25, -39.283333335 ], [ 146.75, -39.25 ], [ 147.1166667, -38.99166667 ] ] } },
{ "type": "Feature", "properties": { "begin": "SOUTH OF WILSON PROMONTORY IN THE BASS STRAIT_TSS_West_Path_Point_01", "end": "SOUTH OF WILSON PROMONTORY IN THE BASS STRAIT_TSS_West_Path_Point_05", "keepPrefPath":1 }, "geometry": { "type": "LineString", "coordinates": [ [ 147.0, -38.95 ], [ 146.75, -39.10833333 ], [ 146.425, -39.175 ], [ 146.25, -39.215 ], [ 145.9833333, -39.16666667 ] ] } },
{ "type": "Feature", "properties": { "begin": "WEST OF THE SCILLY ISLES_TSS_North_Point_01", "end": "WEST OF THE SCILLY ISLES_TSS_North_Point_02", "TSS or Avoid": "TSS", "layer": "TSS_OptiNav_WEST OF THE SCILLY ISLES_TSS_North_Path", "path": "C:/Users/erago/Documents/TSS_OptiNav_WEST OF THE SCILLY ISLES_TSS_North_Path.geojson|layername=TSS_OptiNav_WEST OF THE SCILLY ISLES_TSS_North_Path" }, "geometry": { "type": "LineString", "coordinates": [ [ -6.693083333, 49.87217 ], [ -6.621083333, 50.033335 ] ] } },
{ "type": "Feature", "properties": { "begin": "WEST OF THE SCILLY ISLES_TSS_South_Point_01", "end": "WEST OF THE SCILLY ISLES_TSS_South_Point_02", "TSS or Avoid": "TSS", "layer": "TSS_OptiNav_WEST OF THE SCILLY ISLES_TSS_South_Path", "path": "C:/Users/erago/Documents/TSS_OptiNav_WEST OF THE SCILLY ISLES_TSS_South_Path.geojson|layername=TSS_OptiNav_WEST OF THE SCILLY ISLES_TSS_South_Path" }, "geometry": { "type": "LineString", "coordinates": [ [ -6.745833333, 50.0565 ], [ -6.8281666665, 49.87217 ] ] } },
{ "type": "Feature", "properties": { "begin": "Western European waters_TSS_North_East_First_Path_start", "end": "Western European waters_TSS_North_East_First_Path_End", "TSS or Avoid": "TSS", "layer": "TSS_OptiNav_Western European waters_TSS_North_East_First_Path", "path": "C:/Users/erago/Documents/Western European waters_TSS_North_East_First_Path.geojson|layername=Western European waters_TSS_North_East_First_Path", "keepPrefPath":1 }, "geometry": { "type": "LineString", "coordinates": [ [ 0.035166667, 50.3205 ], [ 0.98025, 50.497083335 ], [ 1.3375, 50.688 ], [ 1.4560833335, 50.920916665 ], [ 1.7045, 51.08425 ], [ 1.7999166665, 51.13158333 ], [ 2.0423333335, 51.207833335 ], [ 2.123166667, 51.317583335 ], [ 2.136, 51.401166665 ], [ 2.22975, 51.473416665 ], [ 2.626583333, 51.7775 ] ] } },
{ "type": "Feature", "properties": { "begin": "Western European waters_TSS_North_East_First_Path_mid1_start", "end": "Western European waters_TSS_North_East_First_Path_mid1_end", "TSS or Avoid": "TSS", "layer": "TSS_OptiNav_Western European waters_TSS_North_East_First_Path", "path": "C:/Users/erago/Documents/Western European waters_TSS_North_East_First_Path.geojson|layername=Western European waters_TSS_North_East_First_Path", "keepPrefPath":1 }, "geometry": { "type": "LineString", "coordinates": [ [ 2.626583333, 51.7775 ], [ 2.67087499975, 51.994041667499992 ] ] } },
{ "type": "Feature", "properties": { "begin": "Western European waters_TSS_North_East_First_Path_mid2_start", "end": "Western European waters_TSS_North_East_First_Path_mid2_end", "TSS or Avoid": "TSS", "layer": "TSS_OptiNav_Western European waters_TSS_North_East_First_Path", "path": "C:/Users/erago/Documents/Western European waters_TSS_North_East_First_Path.geojson|layername=Western European waters_TSS_North_East_First_Path", "keepPrefPath":1 }, "geometry": { "type": "LineString", "coordinates": [ [ 2.67087499975, 51.994041667499992 ], [ 2.69999999975, 52.30333333 ], [ 2.69999999975, 53.070000002499995 ], [ 2.8884166665, 53.34033333 ], [ 2.98875, 53.4935 ], [ 3.0704166665, 53.582583335 ], [ 3.1659166665, 53.685666665 ], [ 3.4624166665, 53.901916665 ], [ 3.742166666500001, 53.93691667 ], [ 4.748916518578864, 54.012316429516709 ] ] } },
{ "type": "Feature", "properties": { "begin": "Western European waters_TSS_North_East_Second_Path_mid1", "end": "Western European waters_TSS_North_East_Second_Path_mid2", "TSS or Avoid": "TSS", "layer": "TSS_OptiNav_Western European waters_TSS_North_East_Second_Path", "path": "C:/Users/erago/Documents/Western European waters_TSS_North_East_Second_Path.geojson|layername=Western European waters_TSS_North_East_Second_Path", "keepPrefPath":1 }, "geometry": { "type": "LineString", "coordinates": [ [ 2.67087499975, 51.994041667499992 ], [ 2.7249583335, 52.195583335 ], [ 3.3405833335, 52.908166665 ], [ 3.4151666665, 53.042 ], [ 3.63825, 53.338 ], [ 3.7674166665, 53.509333335 ], [ 4.361, 53.771916665 ], [ 4.6833333335, 53.972416665 ], [ 4.748916518578864, 54.012316429516709 ] ] } },
{ "type": "Feature", "properties": { "begin": "Western European waters_TSS_North_East_Second_Path_mid2", "end": "Western European waters_TSS_North_East_Second_Path_Point_25", "TSS or Avoid": "TSS", "layer": "TSS_OptiNav_Western European waters_TSS_North_East_Second_Path", "path": "C:/Users/erago/Documents/Western European waters_TSS_North_East_Second_Path.geojson|layername=Western European waters_TSS_North_East_Second_Path", "keepPrefPath":1 }, "geometry": { "type": "LineString", "coordinates": [ [ 4.748916518578864, 54.012316429516709 ], [ 5.0028333335, 54.031333335 ], [ 6.0408333335, 54.1175 ], [ 6.334083333500002, 54.14066667 ], [ 6.362333333500001, 54.142 ], [ 7.4345833335, 54.155 ] ] } },
{ "type": "Feature", "properties": { "begin": "Western European waters_TSS_North_East_Third_Path_mid", "end": "Western European waters_TSS_North_East_Third_Path_Point_20", "TSS or Avoid": "TSS", "layer": "TSS_OptiNav_Western European waters_TSS_North_East_Third_Path", "path": "C:\\Users\\erago\\Documents\\Western European waters_TSS_North_East_Third_Path.geojson|layername=Western European waters_TSS_North_East_Third_Path", "keepPrefPath":1 }, "geometry": { "type": "LineString", "coordinates": [ [ 2.626583333, 51.7775 ], [ 3.0745833335, 52.108916665 ], [ 3.1279166665, 52.146583335 ], [ 4.211, 52.8085 ], [ 4.3365833335, 52.98875 ], [ 4.429666667, 53.077833335 ], [ 4.553, 53.195 ], [ 4.739, 53.41041667 ], [ 6.384666667, 53.75125 ], [ 7.7621666665, 53.945833335 ] ] } },
{ "type": "Feature", "properties": { "begin": "Western European waters_TSS_South_West_First_Path_Point_01", "end": "Western European waters_TSS_South_West_First_Path_mid0", "TSS or Avoid": "TSS", "layer": "TSS_OptiNav_Western European waters_TSS_South_West_First_Path", "path": "C:/Users/erago/Documents/Western European waters_TSS_South_West_First_Path.geojson|layername=Western European waters_TSS_South_West_First_Path", "keepPrefPath":1 }, "geometry": { "type": "LineString", "coordinates": [ [ 7.3894166665, 54.204583335 ], [ 6.359333333500001, 54.191916665 ], [ 6.01275, 54.165583335 ], [ 4.9915, 54.080833335 ], [ 4.244548426000466, 54.028145433360038 ] ] } },
{ "type": "Feature", "properties": { "begin": "Western European waters_TSS_South_West_First_Path_mid0", "end": "Western European waters_TSS_South_West_First_Path_mid1", "TSS or Avoid": "TSS", "layer": "TSS_OptiNav_Western European waters_TSS_South_West_First_Path", "path": "C:/Users/erago/Documents/Western European waters_TSS_South_West_First_Path.geojson|layername=Western European waters_TSS_South_West_First_Path", "keepPrefPath":1 }, "geometry": { "type": "LineString", "coordinates": [ [ 4.244548426000466, 54.028145433360038 ], [ 3.722666666499999, 53.991333335 ], [ 3.2958333335, 53.96058333 ], [ 3.0421666665, 53.73425 ], [ 2.96, 53.60766667 ], [ 2.8006666665, 53.3605 ], [ 2.63333333325, 53.0766666675 ], [ 2.62217992418899, 52.192271951528205 ] ] } },
{ "type": "Feature", "properties": { "begin": "Western European waters_TSS_South_West_First_Path_mid1", "end": "Western European waters_TSS_South_West_First_Path_mid2", "TSS or Avoid": "TSS", "layer": "TSS_OptiNav_Western European waters_TSS_South_West_First_Path", "path": "C:/Users/erago/Documents/Western European waters_TSS_South_West_First_Path.geojson|layername=Western European waters_TSS_South_West_First_Path", "keepPrefPath":1 }, "geometry": { "type": "LineString", "coordinates": [ [ 2.62217992418899, 52.192271951528205 ], [ 2.59695833325, 51.941125002500002 ], [ 2.522833333, 51.83233333 ] ] } },
{ "type": "Feature", "properties": { "begin": "Western European waters_TSS_South_West_First_Path_mid2", "end": "Western European waters_TSS_South_West_First_Path_Point_20", "TSS or Avoid": "TSS", "layer": "TSS_OptiNav_Western European waters_TSS_South_West_First_Path", "path": "C:/Users/erago/Documents/Western European waters_TSS_South_West_First_Path.geojson|layername=Western European waters_TSS_South_West_First_Path", "keepPrefPath":1 }, "geometry": { "type": "LineString", "coordinates": [ [ 2.522833333, 51.83233333 ], [ 2.083916667, 51.539416665 ], [ 1.91975, 51.41533333 ], [ 1.8023333335, 51.2555 ], [ 1.5704166665, 51.111833335 ], [ 0.5766666665, 50.602333335 ], [ -0.038166667, 50.496833335 ] ] } },
{ "type": "Feature", "properties": { "begin": "Western European waters_TSS_South_West_Second_Path_mid0", "end": "Western European waters_TSS_South_West_Second_Path_mid1", "TSS or Avoid": "TSS", "layer": "TSS_OptiNav_Western European waters_TSS_South_West_Second_Path", "path": "C:/Users/erago/Documents/Western European waters_TSS_South_West_Second_Path.geojson|layername=Western European waters_TSS_South_West_Second_Path", "keepPrefPath":1 }, "geometry": { "type": "LineString", "coordinates": [ [ 4.244548426000466, 54.028145433360038 ], [ 4.2099166665, 53.956666665 ], [ 3.6744166665, 53.719833335 ], [ 3.4989166665, 53.3755 ], [ 3.338, 53.057666665 ], [ 3.2635833335, 52.923833335 ], [ 2.7305416665, 52.267416665 ], [ 2.62217992418899, 52.192271951528205 ] ] } },
{ "type": "Feature", "properties": { "begin": "Western European waters_TSS_South_West_Third_Path_Point_01", "end": "Western European waters_TSS_South_West_Third_Path_mid2", "TSS or Avoid": "TSS", "layer": "TSS_OptiNav_Western European waters_TSS_South_West_Third_Path", "path": "C:/Users/erago/Documents/Western European waters_TSS_South_West_Third_Path.geojson|layername=Western European waters_TSS_South_West_Third_Path", "keepPrefPath":1 }, "geometry": { "type": "LineString", "coordinates": [ [ 7.708083333499999, 54.032416670000011 ], [ 7.57275, 54.00275 ], [ 6.3799166665, 53.83625 ], [ 5.13, 53.59525 ], [ 4.6255, 53.475166665 ], [ 4.5675, 53.41375 ], [ 4.4008333335, 53.16775 ], [ 4.310833333, 53.122916665 ], [ 3.9543333335, 52.944166665 ], [ 3.01975, 52.204583335 ], [ 2.966416667, 52.166833335 ], [ 2.522833333, 51.83233333 ] ] } }
]
}
