{
"type": "FeatureCollection",
"crs": { "type": "name", "properties": { "name": "urn:ogc:def:crs:OGC:1.3:CRS84" } },
"features": [
  {"type":"Feature", "properties":{"cNr":0, "type":1, "nPoints":2, "time":-1.00, "fuel":-1.00, "earliestStartLevel":31, "latestEndLevel":30, "distance":23.116},
    "geometry":{"type": "LineString", "coordinates":[[-5.8983,51.867], [-5.9900,51.667]]}}
,   {"type":"Feature", "properties":{"cNr":1, "type":1, "nPoints":2, "time":-1.00, "fuel":-1.00, "earliestStartLevel":36, "latestEndLevel":37, "distance":21.326},
    "geometry":{"type": "LineString", "coordinates":[[-6.7458,50.056], [-6.8282,49.872]]}}
,   {"type":"Feature", "properties":{"cNr":2, "type":1, "nPoints":3, "time":-1.00, "fuel":-1.00, "earliestStartLevel":40, "latestEndLevel":42, "distance":69.111},
    "geometry":{"type": "LineString", "coordinates":[[-9.9667,43.479], [-10.1046,43.282], [-10.1046,42.882]]}}
,   {"type":"Feature", "properties":{"cNr":3, "type":1, "nPoints":3, "time":-1.00, "fuel":-1.00, "earliestStartLevel":43, "latestEndLevel":44, "distance":31.198},
    "geometry":{"type": "LineString", "coordinates":[[-10.1059,38.865], [-10.1059,38.694], [-10.0743,38.587]]}}
]}
